FROMYEAR;STA_FROMDATETIME;VESS_SIGNAL;VESS_NAME;VESS_DISTRICT;TYPE;STA_SAMPTYPE_CODENOID;SAMPTYPE_NAMEENG;STA_SUBDIV_SUBDIV;SUBNAMN;STA_ICESRECT_RUTA;LATSTART_DEG;LONGSTART_DEG;LATSTOP_DEG;LONGSTOP_DEG;STA_DURATION;STA_SPEED;STA_DIST;STA_COURSE;STA_BOTSTART;STA_BOTSTOP;STA_BOTMAX;STA_BOTAVG;GEARMOD_REDSKAP_REDSKKOD;REDSKENG;GEARMOD_NAMEENG;STA_SELECTIONDEVICE;STA_SELECTIONDEVICEMESH;STA_HEADROPEDEPTHMAX;STA_HEADROPEDEPTHMIN;STA_FOOTROPEDEPTH;TOTD_NAMEENG;TOTD_AREA;STA_SWEEPLENGTH;STA_STROPLENGTHDOORFLOATS;STAVALCODE_DESCENG;index;Lat1;Lon1;LATDD;LONGDD;Size.final..m.;Size.final..foot.;Horizontal.opening..m.;Fishing line (foot);Swep both side (after formula) (meter);Swep.both.side..after.formula...foot.;sweep both sides (foot);Swept.area;RSA;RS
2015;2015-09-30 00:00;SFC-9622;FILIP;UÅ - 62;Swedish vessel;80;Coastal Laboratory - DCF;31;Sub-31 (Bottenviken);5 665;63 38,000;20 25,000;;;240;;;;;;;;721;GNS Gillnet set;GNS GILL NET FOR HERRING;0;;;;;"Thyborön 100""";4;75;;Valid;SFC-9622.2015.;6338;2025;63.633;20.417;0;0;0;;0;0;;0;;
2016;2016-06-01 00:00;SECT;SETTE MARI;GE - 49;Swedish vessel;80;Coastal Laboratory - DCF;30;Sub-30 (Bottenhavet);5 063;60 51,000;18 43,000;;;;;;;;;;;314;OTB Otter trawl bottom;OTB BOTTOM TRAWL FOR HERRING;0;;;;;;;;;Valid;SECT.2016.999;6051;1843;60.85;18.717;0;0;0;;0;0;;0;;
2016;2016-09-13 00:00;SFB-6968;ÖRNÖ;HL - 4;Swedish vessel;80;Coastal Laboratory - DCF;30;Sub-30 (Bottenhavet);5 262;61 46,000;17 30,000;;;720;;;;;;;;721;GNS Gillnet set;GNS GILL NET FOR HERRING;0;;;;;;;;;Valid;SFB-6968.2016.999;6146;1730;61.767;17.5;0;0;0;;0;0;;0;;
2016;2016-12-07 00:00;SMZN;WESTERÖ AV HÖNÖ;GG - 359;Swedish vessel;80;Coastal Laboratory - DCF;30;Sub-30 (Bottenhavet);5 063;60 45,000;18 47,000;61 49,000;18 35,000;1 440;;;;;;;;321;OTM Otter trawl midwater;OTM PELAGIC TRAWL FOR HERRING;0;;;;;;;;;Valid;SMZN.2016.999;6045;1847;60.75;18.783;0;0;0;;0;0;;0;;
2015;2015-06-10 00:00;SFB-2741;ATHENA;HA - 26;Swedish vessel;80;Coastal Laboratory - DCF;31;Sub-31 (Bottenviken);6 067;65 43,990;22 41,300;;;480;;;;;;;;721;GNS Gillnet set;GNS GILL NET FOR HERRING;0;;;;;;;;;Valid;SFB-2741.2015.;6543.99;2241.3;65.733;22.688;0;0;0;;0;0;;0;;
2015;2015-11-24 08:30;OXBH;DANA;;Research vessel;6;BITS;28;Sub-28 (Östersjön-Öster om Gotland);4 364;57 22,000;19 08,900;57 23,000;19 10,300;30;3;1;;82;88;;85;316;OTB Otter trawl bottom;TV 112 COD TRAWL;;;;;;"Thyborön 100""";4;75;;No oxygen;OXBH.2015.29;5722;1908.9;57.367;19.148;81.29978477;266.7315773;42.476928;208;38.82285677;127.3715773;492.1259843;0.453652799;1;1
2016;2016-11-26 07:15;OXBH;DANA;;Research vessel;6;BITS;27;Sub-27 (Östersjön-Väster om Gotland);4 261;56 32,000;16 55,000;56 33,500;16 55,000;30;3;2;;72;74;;73;319;OTB Otter trawl bottom;TV3 BOTTOM TRAWL FOR COD 930 MESH;;;;;;"Thyborön 100""";4;75;;No oxygen;OXBH.2016.53;5632;1655;56.533;16.917;81.29978477;266.7315773;42.476928;208;38.82285677;127.3715773;492.1259843;0.453652799;1;1
2016;2016-02-22 06:31;OXBH;DANA;;Research vessel;6;BITS;25;Sub-25 (Östersjön-Södra centrala V);4 060;55 46,210;15 14,890;55 46,230;15 17,550;30;3;2;89;57;57;;56;319;OTB Otter trawl bottom;TV3 BOTTOM TRAWL FOR COD 930 MESH;;;;;;"Thyborön 100""";4;75;;Valid;OXBH.2016.10;5546.21;1514.89;55.77;15.248;81.29978477;266.7315773;42.476928;208;38.82285677;127.3715773;492.1259843;0.453652799;1;1
2016;2016-02-25 09:30;OXBH;DANA;;Research vessel;6;BITS;28;Sub-28 (Östersjön-Öster om Gotland);4 364;57 12,100;19 03,060;57 13,500;19 03,900;30;3;2;;82;84;;83;319;OTB Otter trawl bottom;TV3 BOTTOM TRAWL FOR COD 930 MESH;;;;;;"Thyborön 100""";4;75;;No oxygen;OXBH.2016.44;5712.1;1903.06;57.202;19.051;81.29978477;266.7315773;42.476928;208;38.82285677;127.3715773;492.1259843;0.453652799;1;1
2015;2015-03-01 14:45;OXBH;DANA;;Research vessel;6;BITS;28;Sub-28 (Östersjön-Öster om Gotland);4 364;57 12,000;19 03,000;57 13,400;19 03,800;30;3;2;;82;84;;83;319;OTB Otter trawl bottom;TV3 BOTTOM TRAWL FOR COD 930 MESH;;;;;;"Thyborön 100""";4;75;;No oxygen;OXBH.2015.41;5712;1903;57.2;19.05;81.29978477;266.7315773;42.476928;208;38.82285677;127.3715773;492.1259843;0.453652799;1;1
2016;2016-11-22 07:27;OXBH;DANA;;Research vessel;6;BITS;28;Sub-28 (Östersjön-Öster om Gotland);4 363;57 12,880;18 51,060;57 11,650;18 49,560;30;3;1;211;43;42;;43;319;OTB Otter trawl bottom;TV3 BOTTOM TRAWL FOR COD 930 MESH;;;;;;"Thyborön 100""";4;75;;Valid;OXBH.2016.21;5712.88;1851.06;57.215;18.851;81.29978477;266.7315773;42.476928;208;38.82285677;127.3715773;492.1259843;0.453652799;1;1
2015;2015-11-26 07:12;OXBH;DANA;;Research vessel;6;BITS;25;Sub-25 (Östersjön-Södra centrala V);4 061;55 52,170;16 01,260;55 52,250;16 03,930;30;3;2;87;54;53;;54;316;OTB Otter trawl bottom;TV 112 COD TRAWL;;;;;;"Thyborön 100""";4;75;;Valid;OXBH.2015.49;5552.17;1601.26;55.87;16.021;81.29978477;266.7315773;42.476928;208;38.82285677;127.3715773;492.1259843;0.453652799;1;1
2016;2016-02-24 14:00;OXBH;DANA;;Research vessel;6;BITS;26;Sub-26 (Östersjön-Södra centrala Ö);4 163;56 27,200;18 40,100;56 28,500;18 41,500;30;3;2;;73;76;;74;319;OTB Otter trawl bottom;TV3 BOTTOM TRAWL FOR COD 930 MESH;;;;;;"Thyborön 100""";4;75;;No oxygen;OXBH.2016.36;5627.2;1840.1;56.453;18.668;81.29978477;266.7315773;42.476928;208;38.82285677;127.3715773;492.1259843;0.453652799;1;1
2015;2015-11-23 07:16;OXBH;DANA;;Research vessel;6;BITS;28;Sub-28 (Östersjön-Öster om Gotland);4 363;57 00,270;18 48,370;57 01,710;18 49,260;30;3;2;19;73;72;;72;316;OTB Otter trawl bottom;TV 112 COD TRAWL;;;;;;"Thyborön 100""";4;75;;Valid;OXBH.2015.19;5700.27;1848.37;57.005;18.806;81.29978477;266.7315773;42.476928;208;38.82285677;127.3715773;492.1259843;0.453652799;1;1
2015;2015-11-20 07:13;OXBH;DANA;;Research vessel;6;BITS;25;Sub-25 (Östersjön-Södra centrala V);4 059;55 38,140;14 36,860;55 39,060;14 38,970;30;3;1;52;59;59;61;60;316;OTB Otter trawl bottom;TV 112 COD TRAWL;;;;;;"Thyborön 100""";4;75;;Valid;OXBH.2015.2;5538.14;1436.86;55.636;14.614;81.29978477;266.7315773;42.476928;208;38.82285677;127.3715773;492.1259843;0.453652799;1;1
2016;2016-10-05 13:48;OXBH;DANA;;Research vessel;2;Acoustics (BIAS, Hersur) ;27;Sub-27 (Östersjön-Väster om Gotland);4 362;57 05,710;17 52,980;57 07,030;17 48,610;53;3;3;299;75;96;;86;321;OTM Otter trawl midwater;Fotö oneboat pelag floatstock.14;;;;;;Tyborön VF 15;4;108;;Valid;OXBH.2016.19;5705.71;1752.98;57.095;17.883;0;0;0;;0;0;;0;;1
2015;2015-10-02 01:15;OXBH;DANA;;Research vessel;2;Acoustics (BIAS, Hersur) ;25;Sub-25 (Östersjön-Södra centrala V);4 161;56 04,565;16 16,956;56 02,847;16 12,337;30;4;2;156;37;37;;37;321;OTM Otter trawl midwater;FOTÖ ONEB PEL.TR 3.2M 6MM 2010;;;;;;Tyborön VF 15;4;108;;Valid;OXBH.2015.12;5604.565;1616.956;56.076;16.283;0;0;0;;0;0;;0;;0.8
2015;2015-11-21 13:48;OXBH;DANA;;Research vessel;6;BITS;26;Sub-26 (Östersjön-Södra centrala Ö);4 163;56 23,290;18 36,220;56 24,680;18 37,280;30;3;2;23;78;76;;78;316;OTB Otter trawl bottom;TV 112 COD TRAWL;;;;;;"Thyborön 100""";4;75;;Valid;OXBH.2015.12;5623.29;1836.22;56.388;18.604;81.29978477;266.7315773;42.476928;208;38.82285677;127.3715773;492.1259843;0.453652799;1;1
2015;2015-10-01 12:00;OXBH;DANA;;Research vessel;2;Acoustics (BIAS, Hersur) ;25;Sub-25 (Östersjön-Södra centrala V);4 059;55 46,460;14 58,540;55 47,250;14 55,370;67;4;4;354;45;45;;45;321;OTM Otter trawl midwater;FOTÖ ONEB PEL.TR 3.2M 6MM 2010;;;;;;Tyborön VF 15;4;108;;Valid;OXBH.2015.6;5546.46;1458.54;55.774;14.976;0;0;0;;0;0;;0;;0.8
2016;2016-10-06 23:12;OXBH;DANA;;Research vessel;2;Acoustics (BIAS, Hersur) ;27;Sub-27 (Östersjön-Väster om Gotland);4 562;58 08,170;17 58,390;58 07,990;18 05,580;70;3;4;93;180;100;;156;321;OTM Otter trawl midwater;Fotö oneboat pelag floatstock.14;;;;;;Tyborön VF 15;4;108;;Valid;OXBH.2016.31;5808.17;1758.39;58.136;17.973;0;0;0;;0;0;;0;;0.9
2015;2015-10-06 20:53;OXBH;DANA;;Research vessel;2;Acoustics (BIAS, Hersur) ;28;Sub-28 (Östersjön-Öster om Gotland);4 564;58 07,420;19 43,010;58 06,060;19 45,380;30;4;2;137;157;157;167;157;321;OTM Otter trawl midwater;FOTÖ ONEB PEL.TR 3.2M 6MM 2010;;;;;;Tyborön VF 15;4;108;;Valid;OXBH.2015.62;5807.42;1943.01;58.124;19.717;0;0;0;;0;0;;0;;0.8
2015;2015-03-03 07:13;OXBH;DANA;;Research vessel;6;BITS;28;Sub-28 (Östersjön-Öster om Gotland);4 464;57 58,770;19 33,460;58 02,220;19 32,770;30;3;1;333;70;72;;72;319;OTB Otter trawl bottom;TV3 BOTTOM TRAWL FOR COD 930 MESH;;;;;;"Thyborön 100""";4;75;;Valid;OXBH.2015.52;5758.77;1933.46;57.98;19.558;81.29978477;266.7315773;42.476928;208;38.82285677;127.3715773;492.1259843;0.453652799;1;1
2015;2015-10-08 13:27;OXBH;DANA;;Research vessel;2;Acoustics (BIAS, Hersur) ;26;Sub-26 (Östersjön-Södra centrala Ö);4 163;56 20,553;18 33,159;56 23,660;18 35,576;60;4;4;127;73;72;;70;321;OTM Otter trawl midwater;FOTÖ ONEB PEL.TR 3.2M 6MM 2010;;;;;;Tyborön VF 15;4;108;;Valid;OXBH.2015.78;5620.553;1833.159;56.343;18.553;0;0;0;;0;0;;0;;0.8
2015;2015-11-26 12:20;OXBH;DANA;;Research vessel;6;BITS;25;Sub-25 (Östersjön-Södra centrala V);4 060;55 56,770;15 17,470;55 56,630;15 20,130;30;3;2;95;45;46;;47;316;OTB Otter trawl bottom;TV 112 COD TRAWL;;;;;;"Thyborön 100""";4;75;;Valid;OXBH.2015.53;5556.77;1517.47;55.946;15.291;81.29978477;266.7315773;42.476928;208;38.82285677;127.3715773;492.1259843;0.453652799;1;1
2016;2016-03-02 07:08;OXBH;DANA;;Research vessel;6;BITS;25;Sub-25 (Östersjön-Södra centrala V);4 060;55 50,450;15 17,480;55 49,280;15 15,790;30;3;2;219;49;51;;51;319;OTB Otter trawl bottom;TV3 BOTTOM TRAWL FOR COD 930 MESH;;;;;;"Thyborön 100""";4;75;;Valid;OXBH.2016.95;5550.45;1517.48;55.841;15.291;81.29978477;266.7315773;42.476928;208;38.82285677;127.3715773;492.1259843;0.453652799;1;1
2016;2016-11-24 11:32;OXBH;DANA;;Research vessel;6;BITS;27;Sub-27 (Östersjön-Väster om Gotland);4 362;57 07,630;17 17,420;57 06,140;17 17,120;30;3;1;186;70;74;;72;319;OTB Otter trawl bottom;TV3 BOTTOM TRAWL FOR COD 930 MESH;0;;;;;"Thyborön 100""";4;75;;Valid;OXBH.2016.41;5707.63;1717.42;57.127;17.29;81.29978477;266.7315773;42.476928;208;38.82285677;127.3715773;492.1259843;0.453652799;1;1
2015;2015-03-05 15:50;OXBH;DANA;;Research vessel;6;BITS;25;Sub-25 (Östersjön-Södra centrala V);4 162;56 15,400;17 53,170;56 14,220;17 51,560;30;3;2;218;42;51;;46;319;OTB Otter trawl bottom;TV3 BOTTOM TRAWL FOR COD 930 MESH;;;;;;"Thyborön 100""";4;75;;Valid;OXBH.2015.76;5615.4;1753.17;56.257;17.886;81.29978477;266.7315773;42.476928;208;38.82285677;127.3715773;492.1259843;0.453652799;1;1
2015;2015-10-01 21:09;OXBH;DANA;;Research vessel;2;Acoustics (BIAS, Hersur) ;25;Sub-25 (Östersjön-Södra centrala V);4 060;55 45,280;15 53,190;55 47,100;15 55,740;41;4;2;37;63;61;;62;321;OTM Otter trawl midwater;FOTÖ ONEB PEL.TR 3.2M 6MM 2010;;;;;;Tyborön VF 15;4;108;;Valid;OXBH.2015.10;5545.28;1553.19;55.755;15.887;0;0;0;;0;0;;0;;0.8
2016;2016-02-22 14:45;OXBH;DANA;;Research vessel;6;BITS;25;Sub-25 (Östersjön-Södra centrala V);4 060;55 52,960;15 34,000;55 54,400;15 34,060;30;3;1;138;50;50;;51;319;OTB Otter trawl bottom;TV3 BOTTOM TRAWL FOR COD 930 MESH;;;;;;"Thyborön 100""";4;75;;Valid;OXBH.2016.16;5552.96;1534;55.883;15.567;81.29978477;266.7315773;42.476928;208;38.82285677;127.3715773;492.1259843;0.453652799;1;1
2016;2016-10-12 16:05;OXBH;DANA;;Research vessel;2;Acoustics (BIAS, Hersur) ;25;Sub-25 (Östersjön-Södra centrala V);4 162;56 26,592;17 04,143;56 28,226;17 06,349;36;3;2;37;56;60;;56;321;OTM Otter trawl midwater;Fotö oneboat pelag floatstock.14;;;;;;Tyborön VF 15;4;108;;Valid;OXBH.2016.82;5626.592;1704.143;56.443;17.069;0;0;0;;0;0;;0;;0.9
2016;2016-11-21 11:34;OXBH;DANA;;Research vessel;6;BITS;26;Sub-26 (Östersjön-Södra centrala Ö);4 163;56 20,380;18 43,510;56 19,530;18 41,300;30;3;2;235;115;112;;114;319;OTB Otter trawl bottom;TV3 BOTTOM TRAWL FOR COD 930 MESH;;;;;;"Thyborön 100""";4;75;;Valid;OXBH.2016.17;5620.38;1843.51;56.34;18.725;81.29978477;266.7315773;42.476928;208;38.82285677;127.3715773;492.1259843;0.453652799;1;1
2015;2015-02-27 13:00;OXBH;DANA;;Research vessel;6;BITS;25;Sub-25 (Östersjön-Södra centrala V);4 060;55 48,150;15 48,120;55 48,490;15 50,740;30;3;2;77;55;56;;56;319;OTB Otter trawl bottom;TV3 BOTTOM TRAWL FOR COD 930 MESH;;;;;;"Thyborön 100""";4;75;;Valid;OXBH.2015.15;5548.15;1548.12;55.803;15.802;81.29978477;266.7315773;42.476928;208;38.82285677;127.3715773;492.1259843;0.453652799;1;1
2015;2015-02-28 13:30;OXBH;DANA;;Research vessel;6;BITS;26;Sub-26 (Östersjön-Södra centrala Ö);4 163;56 20,000;18 43,000;56 19,200;18 47,700;30;3;2;;110;116;;113;319;OTB Otter trawl bottom;TV3 BOTTOM TRAWL FOR COD 930 MESH;;;;;;"Thyborön 100""";4;75;;No oxygen;OXBH.2015.27;5620;1843;56.333;18.717;81.29978477;266.7315773;42.476928;208;38.82285677;127.3715773;492.1259843;0.453652799;1;1
2015;2015-10-08 02:35;OXBH;DANA;;Research vessel;2;Acoustics (BIAS, Hersur) ;28;Sub-28 (Östersjön-Öster om Gotland);4 263;56 52,284;18 48,016;56 52,718;18 50,729;26;4;2;73;75;89;;82;321;OTM Otter trawl midwater;FOTÖ ONEB PEL.TR 3.2M 6MM 2010;;;;;;Tyborön VF 15;4;108;20;Valid;OXBH.2015.74;5652.284;1848.016;56.871;18.8;0;0;0;;0;0;;0;;0.8
2016;2016-02-25 14:53;OXBH;DANA;;Research vessel;6;BITS;28;Sub-28 (Östersjön-Öster om Gotland);4 464;57 40,170;19 03,870;57 41,460;19 05,320;30;3;2;31;36;36;;36;319;OTB Otter trawl bottom;TV3 BOTTOM TRAWL FOR COD 930 MESH;;;;;;"Thyborön 100""";4;75;;Valid;OXBH.2016.49;5740.17;1903.87;57.67;19.065;81.29978477;266.7315773;42.476928;208;38.82285677;127.3715773;492.1259843;0.453652799;1;1
2016;2016-02-23 08:28;OXBH;DANA;;Research vessel;6;BITS;25;Sub-25 (Östersjön-Södra centrala V);4 062;55 53,410;17 43,670;55 54,850;17 44,550;30;3;2;19;61;63;;62;319;OTB Otter trawl bottom;TV3 BOTTOM TRAWL FOR COD 930 MESH;;;;;;"Thyborön 100""";4;75;;Valid;OXBH.2016.20;5553.41;1743.67;55.89;17.728;81.29978477;266.7315773;42.476928;208;38.82285677;127.3715773;492.1259843;0.453652799;1;1
2015;2015-10-06 10:51;OXBH;DANA;;Research vessel;2;Acoustics (BIAS, Hersur) ;29S;Sub-29S (Skärgårdshavet, S 59.30);4 665;58 36,059;20 40,151;58 38,881;20 36,790;60;3;3;329;89;103;;94;321;OTM Otter trawl midwater;FOTÖ ONEB PEL.TR 3.2M 6MM 2010;;;;;;Tyborön VF 15;4;108;;Valid;OXBH.2015.58;5836.059;2040.151;58.601;20.669;0;0;0;;0;0;;0;;0.9
2015;2015-03-06 15:18;OXBH;DANA;;Research vessel;6;BITS;25;Sub-25 (Östersjön-Södra centrala V);4 061;55 46,010;16 39,650;55 47,260;16 38,110;30;3;2;325;56;53;;55;319;OTB Otter trawl bottom;TV3 BOTTOM TRAWL FOR COD 930 MESH;;;;;;"Thyborön 100""";4;75;;Valid;OXBH.2015.82;5546.01;1639.65;55.767;16.661;81.29978477;266.7315773;42.476928;208;38.82285677;127.3715773;492.1259843;0.453652799;1;1
2015;2015-03-05 06:30;OXBH;DANA;;Research vessel;6;BITS;27;Sub-27 (Östersjön-Väster om Gotland);4 261;56 32,000;16 55,000;56 33,500;16 55,000;30;3;2;;71;73;;72;319;OTB Otter trawl bottom;TV3 BOTTOM TRAWL FOR COD 930 MESH;;;;;;"Thyborön 100""";4;75;;No oxygen;OXBH.2015.69;5632;1655;56.533;16.917;81.29978477;266.7315773;42.476928;208;38.82285677;127.3715773;492.1259843;0.453652799;1;1
2015;2015-05-19 00:00;SECT;SETTE MARI;GE - 49;Swedish vessel;80;Coastal Laboratory - DCF;30;Sub-30 (Bottenhavet);5 063;60 54,000;18 44,000;;;1 200;;;;;;;;314;OTB Otter trawl bottom;OTB BOTTOM TRAWL FOR HERRING;0;;;;;;;;;Valid;SECT.2015.999;6054;1844;60.9;18.733;0;0;0;;0;0;;0;;
2015;2015-03-12 00:00;SECT;SETTE MARI;GE - 49;Swedish vessel;80;Coastal Laboratory - DCF;30;Sub-30 (Bottenhavet);5 162;61 06,000;17 52,000;;;1 260;;;;;;;;314;OTB Otter trawl bottom;OTB BOTTOM TRAWL FOR HERRING;0;;;;;;;;;Valid;SECT.2015.999;6106;1752;61.1;17.867;0;0;0;;0;0;;0;;
2016;2016-10-04 00:00;SJBN;MERCY;GG - 370;Swedish vessel;80;Coastal Laboratory - DCF;30;Sub-30 (Bottenhavet);5 063;60 51,000;18 42,000;61 08,000;17 52,000;1 439;;;;;;;;321;OTM Otter trawl midwater;OTM PELAGIC TRAWL FOR HERRING;0;;;;;;;;;Valid;SJBN.2016.999;6051;1842;60.85;18.7;0;0;0;;0;0;;0;;
2015;2015-02-28 08:55;OXBH;DANA;;Research vessel;6;BITS;26;Sub-26 (Östersjön-Södra centrala Ö);4 163;56 21,030;18 26,740;56 19,890;18 24,970;30;3;2;220;42;42;;42;319;OTB Otter trawl bottom;TV3 BOTTOM TRAWL FOR COD 930 MESH;;;;;;"Thyborön 100""";4;75;;Valid;OXBH.2015.22;5621.03;1826.74;56.351;18.446;81.29978477;266.7315773;42.476928;208;38.82285677;127.3715773;492.1259843;0.453652799;1;1
2016;2016-03-01 09:54;OXBH;DANA;;Research vessel;6;BITS;25;Sub-25 (Östersjön-Södra centrala V);4 061;55 44,690;16 19,970;55 46,190;16 20,060;30;3;2;163;66;65;;66;319;OTB Otter trawl bottom;TV3 BOTTOM TRAWL FOR COD 930 MESH;;;;;;"Thyborön 100""";4;75;;Valid;OXBH.2016.89;5544.69;1619.97;55.745;16.333;81.29978477;266.7315773;42.476928;208;38.82285677;127.3715773;492.1259843;0.453652799;1;1
2015;2015-03-03 09:29;OXBH;DANA;;Research vessel;6;BITS;28;Sub-28 (Östersjön-Öster om Gotland);4 564;58 03,300;19 26,720;58 04,770;19 26,190;30;3;2;325;78;72;;74;319;OTB Otter trawl bottom;TV3 BOTTOM TRAWL FOR COD 930 MESH;;;;;;"Thyborön 100""";4;75;;Valid;OXBH.2015.55;5803.3;1926.72;58.055;19.445;81.29978477;266.7315773;42.476928;208;38.82285677;127.3715773;492.1259843;0.453652799;1;1
2016;2016-02-28 15:34;OXBH;DANA;;Research vessel;6;BITS;26;Sub-26 (Östersjön-Södra centrala Ö);4 163;56 21,030;18 29,370;56 19,800;18 27,870;30;3;1;214;53;53;;54;319;OTB Otter trawl bottom;TV3 BOTTOM TRAWL FOR COD 930 MESH;;;;;;"Thyborön 100""";4;75;;Valid;OXBH.2016.78;5621.03;1829.37;56.351;18.49;81.29978477;266.7315773;42.476928;208;38.82285677;127.3715773;492.1259843;0.453652799;1;1
2016;2016-11-25 11:21;OXBH;DANA;;Research vessel;6;BITS;27;Sub-27 (Östersjön-Väster om Gotland);4 261;56 43,660;16 59,670;56 42,200;16 59,080;30;3;2;193;64;66;;65;319;OTB Otter trawl bottom;TV3 BOTTOM TRAWL FOR COD 930 MESH;;;;;;"Thyborön 100""";4;75;;Additional valid stations not used for index calculations;OXBH.2016.48;5643.66;1659.67;56.728;16.995;81.29978477;266.7315773;42.476928;208;38.82285677;127.3715773;492.1259843;0.453652799;1;1
2015;2015-02-27 08:40;OXBH;DANA;;Research vessel;6;BITS;25;Sub-25 (Östersjön-Södra centrala V);4 060;55 48,900;15 15,300;55 50,100;15 16,990;30;3;2;39;53;49;;52;319;OTB Otter trawl bottom;TV3 BOTTOM TRAWL FOR COD 930 MESH;;;;;;"Thyborön 100""";4;75;;Valid;OXBH.2015.12;5548.9;1515.3;55.815;15.255;81.29978477;266.7315773;42.476928;208;38.82285677;127.3715773;492.1259843;0.453652799;1;1
2016;2016-11-21 13:16;OXBH;DANA;;Research vessel;6;BITS;26;Sub-26 (Östersjön-Södra centrala Ö);4 163;56 21,670;18 30,250;56 20,440;18 28,670;30;3;1;217;53;53;;53;319;OTB Otter trawl bottom;TV3 BOTTOM TRAWL FOR COD 930 MESH;;;;;;"Thyborön 100""";4;75;;Valid;OXBH.2016.18;5621.67;1830.25;56.361;18.504;81.29978477;266.7315773;42.476928;208;38.82285677;127.3715773;492.1259843;0.453652799;1;1
2016;2016-10-03 14:52;OXBH;DANA;;Research vessel;2;Acoustics (BIAS, Hersur) ;25;Sub-25 (Östersjön-Södra centrala V);3 959;55 24,944;14 25,912;55 25,496;14 28,213;30;3;1;68.8;47;54;;51;321;OTM Otter trawl midwater;Fotö oneboat pelag floatstock.14;;;;;;Tyborön VF 15;4;108;;Valid;OXBH.2016.2;5524.944;1425.912;55.416;14.432;0;0;0;;0;0;;0;;1.1
2015;2015-03-02 09:41;OXBH;DANA;;Research vessel;6;BITS;28;Sub-28 (Östersjön-Öster om Gotland);4 464;57 52,410;19 25,170;57 53,870;19 25,800;30;3;2;12;49;47;;48;319;OTB Otter trawl bottom;TV3 BOTTOM TRAWL FOR COD 930 MESH;;;;;;"Thyborön 100""";4;75;;Valid;OXBH.2015.44;5752.41;1925.17;57.874;19.42;81.29978477;266.7315773;42.476928;208;38.82285677;127.3715773;492.1259843;0.453652799;1;1
2015;2015-11-25 13:10;OXBH;DANA;;Research vessel;6;BITS;27;Sub-27 (Östersjön-Väster om Gotland);4 463;57 43,000;18 16,450;57 44,300;18 18,000;30;3;2;;102;105;;104;316;OTB Otter trawl bottom;TV 112 COD TRAWL;;;;;;"Thyborön 100""";4;75;;No oxygen;OXBH.2015.45;5743;1816.45;57.717;18.274;81.29978477;266.7315773;42.476928;208;38.82285677;127.3715773;492.1259843;0.453652799;1;1
2016;2016-10-08 12:33;OXBH;DANA;;Research vessel;2;Acoustics (BIAS, Hersur) ;29S;Sub-29S (Skärgårdshavet, S 59.30);4 765;59 05,440;20 15,830;59 06,040;20 13,390;30;3;1;297;114;106;;110;321;OTM Otter trawl midwater;Fotö oneboat pelag floatstock.14;;;;;;Tyborön VF 15;4;108;;Valid;OXBH.2016.43;5905.44;2015.83;59.091;20.264;0;0;0;;0;0;;0;;0.9
2016;2016-11-23 07:17;OXBH;DANA;;Research vessel;6;BITS;28;Sub-28 (Östersjön-Öster om Gotland);4 464;57 40,240;19 03,900;57 41,530;19 05,390;30;3;2;30;35;34;;36;319;OTB Otter trawl bottom;TV3 BOTTOM TRAWL FOR COD 930 MESH;;;;;;"Thyborön 100""";4;75;;Invalid;OXBH.2016.29;5740.24;1903.9;57.671;19.065;81.29978477;266.7315773;42.476928;208;38.82285677;127.3715773;492.1259843;0.453652799;1;1
2015;2015-03-01 06:21;OXBH;DANA;;Research vessel;6;BITS;28;Sub-28 (Östersjön-Öster om Gotland);4 363;57 11,870;18 49,920;57 13,070;18 51,380;29;3;1;34;42;44;;43;319;OTB Otter trawl bottom;TV3 BOTTOM TRAWL FOR COD 930 MESH;;;;;;"Thyborön 100""";4;75;;Valid;OXBH.2015.32;5711.87;1849.92;57.198;18.832;81.29978477;266.7315773;42.476928;208;38.82285677;127.3715773;492.1259843;0.453652799;1;1
2016;2016-02-21 07:09;OXBH;DANA;;Research vessel;6;BITS;25;Sub-25 (Östersjön-Södra centrala V);3 959;55 27,640;14 31,660;55 27,500;14 29,020;30;3;2;266;60;52;;58;319;OTB Otter trawl bottom;TV3 BOTTOM TRAWL FOR COD 930 MESH;;;;;;"Thyborön 100""";4;75;;Valid;OXBH.2016.2;5527.64;1431.66;55.461;14.528;81.29978477;266.7315773;42.476928;208;38.82285677;127.3715773;492.1259843;0.453652799;1;1
2015;2015-10-02 17:55;OXBH;DANA;;Research vessel;2;Acoustics (BIAS, Hersur) ;27;Sub-27 (Östersjön-Väster om Gotland);4 262;56 39,964;17 49,769;56 41,003;17 49,147;20;4;1;343;56;60;;57;321;OTM Otter trawl midwater;FOTÖ ONEB PEL.TR 3.2M 6MM 2010;;;;;;Tyborön VF 15;4;108;;Valid;OXBH.2015.20;5639.964;1749.769;56.666;17.829;0;0;0;;0;0;;0;;0.8
2015;2015-03-06 09:35;OXBH;DANA;;Research vessel;6;BITS;26;Sub-26 (Östersjön-Södra centrala Ö);4 163;56 06,420;18 07,460;56 05,920;18 04,930;30;3;2;251;56;56;;56;319;OTB Otter trawl bottom;TV3 BOTTOM TRAWL FOR COD 930 MESH;;;;;;"Thyborön 100""";4;75;;Valid;OXBH.2015.80;5606.42;1807.46;56.107;18.124;81.29978477;266.7315773;42.476928;208;38.82285677;127.3715773;492.1259843;0.453652799;1;1
2016;2016-11-20 12:35;OXBH;DANA;;Research vessel;6;BITS;26;Sub-26 (Östersjön-Södra centrala Ö);4 163;56 13,140;18 25,600;56 14,340;18 27,270;30;3;2;38;69;70;;71;319;OTB Otter trawl bottom;TV3 BOTTOM TRAWL FOR COD 930 MESH;;;;;;"Thyborön 100""";4;75;;Valid;OXBH.2016.11;5613.14;1825.6;56.219;18.427;81.29978477;266.7315773;42.476928;208;38.82285677;127.3715773;492.1259843;0.453652799;1;1
2016;2016-11-22 13:34;OXBH;DANA;;Research vessel;6;BITS;28;Sub-28 (Östersjön-Öster om Gotland);4 464;57 42,310;19 08,730;57 43,150;19 10,530;25;3;1;50;40;43;;42;319;OTB Otter trawl bottom;TV3 BOTTOM TRAWL FOR COD 930 MESH;;;;;;"Thyborön 100""";4;75;;Valid;OXBH.2016.26;5742.31;1908.73;57.705;19.146;81.29978477;266.7315773;42.476928;208;38.82285677;127.3715773;492.1259843;0.453652799;1;1
2015;2015-11-22 07:14;OXBH;DANA;;Research vessel;6;BITS;26;Sub-26 (Östersjön-Södra centrala Ö);4 163;56 09,680;18 20,090;56 08,280;18 19,050;30;3;2;203;75;78;;77;316;OTB Otter trawl bottom;TV 112 COD TRAWL;;;;;;"Thyborön 100""";4;75;;Valid;OXBH.2015.15;5609.68;1820.09;56.161;18.335;81.29978477;266.7315773;42.476928;208;38.82285677;127.3715773;492.1259843;0.453652799;1;1
2016;2016-10-10 03:15;OXBH;DANA;;Research vessel;2;Acoustics (BIAS, Hersur) ;28;Sub-28 (Östersjön-Öster om Gotland);4 464;57 40,442;19 39,656;57 41,632;19 35,882;45;3;2;300;94;94;;96;321;OTM Otter trawl midwater;Fotö oneboat pelag floatstock.14;;;;;;Tyborön VF 15;4;108;;Valid;OXBH.2016.57;5740.442;1939.656;57.674;19.661;0;0;0;;0;0;;0;;0.9
2016;2016-11-27 09:05;OXBH;DANA;;Research vessel;6;BITS;25;Sub-25 (Östersjön-Södra centrala V);4 059;55 41,110;14 30,290;55 42,030;14 32,400;30;3;2;52;50;45;;47;319;OTB Otter trawl bottom;TV3 BOTTOM TRAWL FOR COD 930 MESH;;;;;;"Thyborön 100""";4;75;;Valid;OXBH.2016.60;5541.11;1430.29;55.685;14.505;81.29978477;266.7315773;42.476928;208;38.82285677;127.3715773;492.1259843;0.453652799;1;1
2015;2015-10-04 08:48;OXBH;DANA;;Research vessel;2;Acoustics (BIAS, Hersur) ;27;Sub-27 (Östersjön-Väster om Gotland);4 562;58 25,078;17 50,044;58 25,886;17 54,918;45;4;3;73;99;131;136;117;321;OTM Otter trawl midwater;FOTÖ ONEB PEL.TR 3.2M 6MM 2010;;;;;;Tyborön VF 15;4;108;;Valid;OXBH.2015.38;5825.078;1750.044;58.418;17.834;0;0;0;;0;0;;0;;0.8
2016;2016-10-07 23:39;OXBH;DANA;;Research vessel;2;Acoustics (BIAS, Hersur) ;29S;Sub-29S (Skärgårdshavet, S 59.30);4 764;59 15,210;19 20,340;59 13,960;19 23,430;41;3;2;129;73;90;94;79;321;OTM Otter trawl midwater;Fotö oneboat pelag floatstock.14;;;;;;Tyborön VF 15;4;108;;Valid;OXBH.2016.39;5915.21;1920.34;59.254;19.339;0;0;0;;0;0;;0;;1
2016;2016-02-24 12:55;OXBH;DANA;;Research vessel;6;BITS;26;Sub-26 (Östersjön-Södra centrala Ö);4 163;56 23,260;18 36,250;56 24,660;18 37,270;30;3;2;22;78;76;;78;319;OTB Otter trawl bottom;TV3 BOTTOM TRAWL FOR COD 930 MESH;;;;;;"Thyborön 100""";4;75;;Valid;OXBH.2016.34;5623.26;1836.25;56.388;18.604;81.29978477;266.7315773;42.476928;208;38.82285677;127.3715773;492.1259843;0.453652799;1;1
2015;2015-03-05 09:45;OXBH;DANA;;Research vessel;6;BITS;25;Sub-25 (Östersjön-Södra centrala V);4 161;56 29,000;16 57,400;56 27,500;16 58,000;30;3;2;;68;72;;70;319;OTB Otter trawl bottom;TV3 BOTTOM TRAWL FOR COD 930 MESH;;;;;;"Thyborön 100""";4;75;;No oxygen;OXBH.2015.73;5629;1657.4;56.483;16.957;81.29978477;266.7315773;42.476928;208;38.82285677;127.3715773;492.1259843;0.453652799;1;1
2015;2015-03-08 06:31;OXBH;DANA;;Research vessel;6;BITS;25;Sub-25 (Östersjön-Södra centrala V);4 059;55 37,560;14 45,220;55 37,530;14 42,590;30;3;1;269;68;67;;68;319;OTB Otter trawl bottom;TV3 BOTTOM TRAWL FOR COD 930 MESH;;;;;;"Thyborön 100""";4;75;;Valid;OXBH.2015.93;5537.56;1445.22;55.626;14.754;81.29978477;266.7315773;42.476928;208;38.82285677;127.3715773;492.1259843;0.453652799;1;1
2015;2015-10-09 23:52;OXBH;DANA;;Research vessel;2;Acoustics (BIAS, Hersur) ;25;Sub-25 (Östersjön-Södra centrala V);4 061;55 38,283;16 15,069;55 37,784;16 10,765;45;3;2;258;72;71;;72;321;OTM Otter trawl midwater;FOTÖ ONEB PEL.TR 3.2M 6MM 2010;;;;;;Tyborön VF 15;4;108;;Valid;OXBH.2015.92;5538.283;1615.069;55.638;16.251;0;0;0;;0;0;;0;;0.9
2015;2015-06-30 00:00;SLTO;BROTTSJÖ;PÅ - 16;Swedish vessel;80;Coastal Laboratory - DCF;31;Sub-31 (Bottenviken);5 966;65 04,000;21 39,000;;;60;;;;;;;;721;GNS Gillnet set;GNS GILL NET FOR HERRING;0;;;;;;;;;Valid;SLTO.2015.;6504;2139;65.067;21.65;0;0;0;;0;0;;0;;
2015;2015-06-18 00:00;SECT;SETTE MARI;GE - 49;Swedish vessel;80;Coastal Laboratory - DCF;30;Sub-30 (Bottenhavet);5 063;60 55,000;18 38,000;;;1 200;;;;;;;;314;OTB Otter trawl bottom;OTB BOTTOM TRAWL FOR HERRING;0;;;;;;;;;Valid;SECT.2015.999;6055;1838;60.917;18.633;0;0;0;;0;0;;0;;
2015;2015-08-19 00:00;SFB-2741;ATHENA;HA - 26;Swedish vessel;80;Coastal Laboratory - DCF;31;Sub-31 (Bottenviken);6 067;65 47,420;22 44,190;;;480;;;;;;;;726;GNS Gillnet set;GNS GILLNET SET;0;;;;;;;;;Valid;SFB-2741.2015.;6547.42;2244.19;65.79;22.737;0;0;0;;0;0;;0;;
2015;2015-11-15 00:00;SECT;SETTE MARI;GE - 49;Swedish vessel;80;Coastal Laboratory - DCF;30;Sub-30 (Bottenhavet);5 063;60 49,000;18 05,000;;;1 320;;;;;;;;314;OTB Otter trawl bottom;OTB BOTTOM TRAWL FOR HERRING;0;;;;;;;;;Valid;SECT.2015.999;6049;1805;60.817;18.083;0;0;0;;0;0;;0;;
2016;2016-11-23 12:15;OXBH;DANA;;Research vessel;6;BITS;28;Sub-28 (Östersjön-Öster om Gotland);4 564;58 03,000;19 26,750;58 04,500;19 26,500;30;3;2;;70;76;;73;319;OTB Otter trawl bottom;TV3 BOTTOM TRAWL FOR COD 930 MESH;;;;;;"Thyborön 100""";4;75;;No oxygen;OXBH.2016.33;5803;1926.75;58.05;19.446;81.29978477;266.7315773;42.476928;208;38.82285677;127.3715773;492.1259843;0.453652799;1;1
2016;2016-02-26 07:34;OXBH;DANA;;Research vessel;6;BITS;28;Sub-28 (Östersjön-Öster om Gotland);4 464;57 41,360;19 22,630;57 42,800;19 23,250;30;3;1;13;74;73;;74;319;OTB Otter trawl bottom;TV3 BOTTOM TRAWL FOR COD 930 MESH;;;;;;"Thyborön 100""";4;75;;Valid;OXBH.2016.53;5741.36;1922.63;57.689;19.377;81.29978477;266.7315773;42.476928;208;38.82285677;127.3715773;492.1259843;0.453652799;1;1
2015;2015-03-04 07:10;OXBH;DANA;;Research vessel;6;BITS;27;Sub-27 (Östersjön-Väster om Gotland);4 362;57 01,350;17 57,310;57 59,850;17 57,050;30;3;2;186;66;64;;65;319;OTB Otter trawl bottom;TV3 BOTTOM TRAWL FOR COD 930 MESH;;;;;;"Thyborön 100""";4;75;;Additional valid stations not used for index calculations;OXBH.2015.62;5701.35;1757.31;57.023;17.955;81.29978477;266.7315773;42.476928;208;38.82285677;127.3715773;492.1259843;0.453652799;1;1
2015;2015-03-02 13:45;OXBH;DANA;;Research vessel;6;BITS;28;Sub-28 (Östersjön-Öster om Gotland);4 464;57 51,490;19 28,540;57 52,640;19 30,350;30;3;1;40;66;70;;69;319;OTB Otter trawl bottom;TV3 BOTTOM TRAWL FOR COD 930 MESH;;;;;;"Thyborön 100""";4;75;;Valid;OXBH.2015.48;5751.49;1928.54;57.858;19.476;81.29978477;266.7315773;42.476928;208;38.82285677;127.3715773;492.1259843;0.453652799;1;1
2016;2016-02-28 06:26;OXBH;DANA;;Research vessel;6;BITS;27;Sub-27 (Östersjön-Väster om Gotland);4 261;56 34,410;16 51,320;56 33,000;16 50,440;30;3;2;199;62;63;;63;319;OTB Otter trawl bottom;TV3 BOTTOM TRAWL FOR COD 930 MESH;;;;;;"Thyborön 100""";4;75;;Valid;OXBH.2016.73;5634.41;1651.32;56.574;16.855;81.29978477;266.7315773;42.476928;208;38.82285677;127.3715773;492.1259843;0.453652799;1;1
2015;2015-10-07 18:17;OXBH;DANA;;Research vessel;2;Acoustics (BIAS, Hersur) ;28;Sub-28 (Östersjön-Öster om Gotland);4 364;57 11,542;19 32,709;57 13,657;19 30,499;41;4;2;331;161;156;;151;321;OTM Otter trawl midwater;FOTÖ ONEB PEL.TR 3.2M 6MM 2010;;;;;;Tyborön VF 15;4;108;15;Valid;OXBH.2015.70;5711.542;1932.709;57.192;19.545;0;0;0;;0;0;;0;;0.8
2016;2016-02-23 10:27;OXBH;DANA;;Research vessel;6;BITS;25;Sub-25 (Östersjön-Södra centrala V);4 162;56 05,630;17 49,700;56 06,250;17 47,280;30;3;2;294;65;67;;67;319;OTB Otter trawl bottom;TV3 BOTTOM TRAWL FOR COD 930 MESH;;;;;;"Thyborön 100""";4;75;;Valid;OXBH.2016.21;5605.63;1749.7;56.094;17.828;81.29978477;266.7315773;42.476928;208;38.82285677;127.3715773;492.1259843;0.453652799;1;1
2015;2015-03-05 07:17;OXBH;DANA;;Research vessel;6;BITS;27;Sub-27 (Östersjön-Väster om Gotland);4 261;56 34,300;16 51,190;56 32,860;16 50,350;30;3;2;198;62;63;;63;319;OTB Otter trawl bottom;TV3 BOTTOM TRAWL FOR COD 930 MESH;;;;;;"Thyborön 100""";4;75;;Additional valid stations not used for index calculations;OXBH.2015.70;5634.3;1651.19;56.572;16.853;81.29978477;266.7315773;42.476928;208;38.82285677;127.3715773;492.1259843;0.453652799;1;1
2015;2015-10-05 12:29;OXBH;DANA;;Research vessel;2;Acoustics (BIAS, Hersur) ;29S;Sub-29S (Skärgårdshavet, S 59.30);4 664;58 49,844;19 49,518;58 50,858;19 44,236;40;4;2;294;120;161;;138;321;OTM Otter trawl midwater;FOTÖ ONEB PEL.TR 3.2M 6MM 2010;;;;;;Tyborön VF 15;4;108;;Valid;OXBH.2015.48;5849.844;1949.518;58.831;19.825;0;0;0;;0;0;;0;;0.8
2015;2015-11-26 09:21;OXBH;DANA;;Research vessel;6;BITS;25;Sub-25 (Östersjön-Södra centrala V);4 060;55 48,500;15 50,730;55 48,130;15 48,160;30;3;1;256;57;55;;56;316;OTB Otter trawl bottom;TV 112 COD TRAWL;;;;;;"Thyborön 100""";4;75;;Valid;OXBH.2015.51;5548.5;1550.73;55.808;15.846;81.29978477;266.7315773;42.476928;208;38.82285677;127.3715773;492.1259843;0.453652799;1;1
2015;2015-03-07 14:13;OXBH;DANA;;Research vessel;6;BITS;25;Sub-25 (Östersjön-Södra centrala V);4 060;55 39,850;15 16,630;55 39,790;15 13,840;30;3;2;268;69;70;;70;319;OTB Otter trawl bottom;TV3 BOTTOM TRAWL FOR COD 930 MESH;;;;;;"Thyborön 100""";4;75;;Valid;OXBH.2015.90;5539.85;1516.63;55.664;15.277;81.29978477;266.7315773;42.476928;208;38.82285677;127.3715773;492.1259843;0.453652799;1;1
2015;2015-10-03 16:24;OXBH;DANA;;Research vessel;2;Acoustics (BIAS, Hersur) ;27;Sub-27 (Östersjön-Väster om Gotland);4 462;57 46,848;17 48,492;57 45,948;17 43,397;46;4;3;251;100;82;;90;321;OTM Otter trawl midwater;FOTÖ ONEB PEL.TR 3.2M 6MM 2010;;;;;;Tyborön VF 15;4;108;;Valid;OXBH.2015.30;5746.848;1748.492;57.781;17.808;0;0;0;;0;0;;0;;0.8
2016;2016-11-24 07:14;OXBH;DANA;;Research vessel;6;BITS;27;Sub-27 (Östersjön-Väster om Gotland);4 362;57 29,820;17 34,200;57 28,390;17 33,250;30;3;2;199;62;76;;72;319;OTB Otter trawl bottom;TV3 BOTTOM TRAWL FOR COD 930 MESH;;;;;;"Thyborön 100""";4;75;;Valid;OXBH.2016.39;5729.82;1734.2;57.497;17.57;81.29978477;266.7315773;42.476928;208;38.82285677;127.3715773;492.1259843;0.453652799;1;1
2015;2015-11-24 13:40;OXBH;DANA;;Research vessel;6;BITS;28;Sub-28 (Östersjön-Öster om Gotland);4 464;57 44,300;19 28,200;57 45,700;19 28,900;30;3;2;;82;84;;83;316;OTB Otter trawl bottom;TV 112 COD TRAWL;;;;;;"Thyborön 100""";4;75;;No oxygen;OXBH.2015.35;5744.3;1928.2;57.738;19.47;81.29978477;266.7315773;42.476928;208;38.82285677;127.3715773;492.1259843;0.453652799;1;1
2015;2015-11-24 10:30;OXBH;DANA;;Research vessel;6;BITS;28;Sub-28 (Östersjön-Öster om Gotland);4 464;57 43,200;19 10,640;57 42,200;19 08,540;30;3;1;228;44;40;;42;316;OTB Otter trawl bottom;TV 112 COD TRAWL;;;;;;"Thyborön 100""";4;75;;Valid;OXBH.2015.31;5743.2;1910.64;57.72;19.177;81.29978477;266.7315773;42.476928;208;38.82285677;127.3715773;492.1259843;0.453652799;1;1
2015;2015-10-06 16:36;OXBH;DANA;;Research vessel;2;Acoustics (BIAS, Hersur) ;28;Sub-28 (Östersjön-Öster om Gotland);4 564;58 23,540;19 41,075;58 21,708;19 43,696;40;4;2;142;114;108;;111;321;OTM Otter trawl midwater;FOTÖ ONEB PEL.TR 3.2M 6MM 2010;;;;;;Tyborön VF 15;4;108;;Valid;OXBH.2015.60;5823.54;1941.075;58.392;19.685;0;0;0;;0;0;;0;;0.8
2016;2016-10-05 18:05;OXBH;DANA;;Research vessel;2;Acoustics (BIAS, Hersur) ;27;Sub-27 (Östersjön-Väster om Gotland);4 362;57 17,501;17 32,711;57 20,374;17 31,918;57;3;3;273;86;84;;84;321;OTM Otter trawl midwater;Fotö oneboat pelag floatstock.14;;;;;;Tyborön VF 15;4;108;;Valid;OXBH.2016.21;5717.501;1732.711;57.292;17.545;0;0;0;;0;0;;0;;1
2015;2015-03-02 13:00;OXBH;DANA;;Research vessel;6;BITS;28;Sub-28 (Östersjön-Öster om Gotland);4 464;57 50,000;19 31,800;57 48,500;19 32,000;30;3;2;;79;83;;81;319;OTB Otter trawl bottom;TV3 BOTTOM TRAWL FOR COD 930 MESH;;;;;;"Thyborön 100""";4;75;;No oxygen;OXBH.2015.47;5750;1931.8;57.833;19.53;81.29978477;266.7315773;42.476928;208;38.82285677;127.3715773;492.1259843;0.453652799;1;1
2016;2016-10-11 12:24;OXBH;DANA;;Research vessel;2;Acoustics (BIAS, Hersur) ;26;Sub-26 (Östersjön-Södra centrala Ö);4 163;56 25,040;18 42,950;56 24,350;18 38,450;54;3;3;253;94;82;;88;321;OTM Otter trawl midwater;Fotö oneboat pelag floatstock.14;;;;;;Tyborön VF 15;4;108;;Valid;OXBH.2016.69;5625.04;1842.95;56.417;18.716;0;0;0;;0;0;;0;;1
2015;2015-02-27 10:34;OXBH;DANA;;Research vessel;6;BITS;25;Sub-25 (Östersjön-Södra centrala V);4 060;55 48,420;15 17,490;55 49,400;15 19,440;30;3;1;48;55;54;;55;319;OTB Otter trawl bottom;TV3 BOTTOM TRAWL FOR COD 930 MESH;;;;;;"Thyborön 100""";4;75;;Valid;OXBH.2015.14;5548.42;1517.49;55.807;15.292;81.29978477;266.7315773;42.476928;208;38.82285677;127.3715773;492.1259843;0.453652799;1;1
2015;2015-10-09 19:24;OXBH;DANA;;Research vessel;2;Acoustics (BIAS, Hersur) ;25;Sub-25 (Östersjön-Södra centrala V);4 061;55 54,020;16 38,386;55 52,951;16 35,328;40;3;2;230;40;47;;44;321;OTM Otter trawl midwater;FOTÖ ONEB PEL.TR 3.2M 6MM 2010;;;;;;Tyborön VF 15;4;108;20;Valid;OXBH.2015.90;5554.02;1638.386;55.9;16.64;0;0;0;;0;0;;0;;0.9
2016;2016-02-26 09:43;OXBH;DANA;;Research vessel;6;BITS;28;Sub-28 (Östersjön-Öster om Gotland);4 464;57 52,430;19 25,190;57 53,900;19 25,820;30;3;2;13;50;47;;49;319;OTB Otter trawl bottom;TV3 BOTTOM TRAWL FOR COD 930 MESH;;;;;;"Thyborön 100""";4;75;;Valid;OXBH.2016.55;5752.43;1925.19;57.874;19.42;81.29978477;266.7315773;42.476928;208;38.82285677;127.3715773;492.1259843;0.453652799;1;1
2015;2015-10-03 06:45;OXBH;DANA;;Research vessel;2;Acoustics (BIAS, Hersur) ;27;Sub-27 (Östersjön-Väster om Gotland);4 462;57 38,514;17 32,689;57 34,654;17 36,658;42;4;2;62;132;95;;119;321;OTM Otter trawl midwater;FOTÖ ONEB PEL.TR 3.2M 6MM 2010;;;;;;Tyborön VF 15;4;108;;Valid;OXBH.2015.26;5738.514;1732.689;57.642;17.545;0;0;0;;0;0;;0;;0.9
2016;2016-02-27 05:50;OXBH;DANA;;Research vessel;6;BITS;27;Sub-27 (Östersjön-Väster om Gotland);4 362;57 27,500;17 44,000;57 29,000;17 44,000;30;3;2;;105;112;;108;319;OTB Otter trawl bottom;TV3 BOTTOM TRAWL FOR COD 930 MESH;;;;;;"Thyborön 100""";4;75;;No oxygen;OXBH.2016.63;5727.5;1744;57.458;17.733;81.29978477;266.7315773;42.476928;208;38.82285677;127.3715773;492.1259843;0.453652799;1;1
2016;2016-02-25 12:45;OXBH;DANA;;Research vessel;6;BITS;28;Sub-28 (Östersjön-Öster om Gotland);4 364;57 21,030;19 09,170;57 22,090;19 11,150;30;3;2;;80;89;;85;319;OTB Otter trawl bottom;TV3 BOTTOM TRAWL FOR COD 930 MESH;;;;;;"Thyborön 100""";4;75;;No oxygen;OXBH.2016.48;5721.03;1909.17;57.351;19.153;81.29978477;266.7315773;42.476928;208;38.82285677;127.3715773;492.1259843;0.453652799;1;1
2016;2016-02-24 07:12;OXBH;DANA;;Research vessel;6;BITS;26;Sub-26 (Östersjön-Södra centrala Ö);4 063;55 55,130;18 38,170;55 55,060;18 40,840;30;3;2;93;114;113;;114;319;OTB Otter trawl bottom;TV3 BOTTOM TRAWL FOR COD 930 MESH;;;;;;"Thyborön 100""";4;75;;Valid;OXBH.2016.30;5555.13;1838.17;55.919;18.636;81.29978477;266.7315773;42.476928;208;38.82285677;127.3715773;492.1259843;0.453652799;1;1
2016;2016-11-20 11:45;OXBH;DANA;;Research vessel;6;BITS;26;Sub-26 (Östersjön-Södra centrala Ö);4 163;56 08,000;18 19,000;56 09,600;18 20,000;30;3;2;;79;75;;77;319;OTB Otter trawl bottom;TV3 BOTTOM TRAWL FOR COD 930 MESH;;;;;;"Thyborön 100""";4;75;;No oxygen;OXBH.2016.10;5608;1819;56.133;18.317;81.29978477;266.7315773;42.476928;208;38.82285677;127.3715773;492.1259843;0.453652799;1;1
2016;2016-10-04 05:03;OXBH;DANA;;Research vessel;2;Acoustics (BIAS, Hersur) ;25;Sub-25 (Östersjön-Södra centrala V);4 060;55 42,859;15 33,464;55 44,123;15 34,768;30;3;1;30.17;68;64;;64;321;OTM Otter trawl midwater;Fotö oneboat pelag floatstock.14;;;;;;Tyborön VF 15;4;108;;Valid;OXBH.2016.8;5542.859;1533.464;55.714;15.558;0;0;0;;0;0;;0;;1
2015;2015-10-05 07:05;OXBH;DANA;;Research vessel;2;Acoustics (BIAS, Hersur) ;29S;Sub-29S (Skärgårdshavet, S 59.30);4 664;58 44,797;19 30,973;58 44,885;14 36,497;40;4;3;88;151;135;;155;321;OTM Otter trawl midwater;FOTÖ ONEB PEL.TR 3.2M 6MM 2010;;;;;;Tyborön VF 15;4;108;;Valid;OXBH.2015.46;5844.797;1930.973;58.747;19.516;0;0;0;;0;0;;0;;0.8
2015;2015-10-02 23:09;OXBH;DANA;;Research vessel;2;Acoustics (BIAS, Hersur) ;27;Sub-27 (Östersjön-Väster om Gotland);4 362;57 04,530;17 21,380;57 03,870;17 19,920;16;4;1;230;87;88;;72;321;OTM Otter trawl midwater;FOTÖ ONEB PEL.TR 3.2M 6MM 2010;;;;;;Tyborön VF 15;4;108;;Valid;OXBH.2015.22;5704.53;1721.38;57.076;17.356;0;0;0;;0;0;;0;;0.8
2015;2015-08-11 00:00;SFC-2455;SOFIA;GE - 5;Swedish vessel;80;Coastal Laboratory - DCF;30;Sub-30 (Bottenhavet);5 062;60 43,600;17 22,300;;;180;;;;;;;;721;GNS Gillnet set;GNS GILL NET FOR HERRING;0;;;;;;;;;Valid;SFC-2455.2015.;6043.6;1722.3;60.727;17.372;0;0;0;;0;0;;0;;
2016;2016-12-21 00:00;SECT;SETTE MARI;GE - 49;Swedish vessel;80;Coastal Laboratory - DCF;30;Sub-30 (Bottenhavet);5 162;61 06,000;17 49,000;;;960;;;;;;;;314;OTB Otter trawl bottom;OTB BOTTOM TRAWL FOR HERRING;0;;;;;;;;;Valid;SECT.2016.999;6106;1749;61.1;17.817;0;0;0;;0;0;;0;;
2016;2016-09-28 00:00;SECT;SETTE MARI;GE - 49;Swedish vessel;80;Coastal Laboratory - DCF;30;Sub-30 (Bottenhavet);5 063;60 55,000;18 58,000;;;1 080;;;;;;;;314;OTB Otter trawl bottom;OTB BOTTOM TRAWL FOR HERRING;0;;;;;;;;;Valid;SECT.2016.999;6055;1858;60.917;18.967;0;0;0;;0;0;;0;;
2016;2016-06-07 00:00;SFC-2455;SOFIA;GE - 5;Swedish vessel;80;Coastal Laboratory - DCF;30;Sub-30 (Bottenhavet);5 062;60 43,000;17 19,000;;;480;;;;;;;;721;GNS Gillnet set;GNS GILL NET FOR HERRING;0;;;;;;;;;Valid;SFC-2455.2016.999;6043;1719;60.717;17.317;0;0;0;;0;0;;0;;
2015;2015-01-09 00:00;SLOT;RÖNNSKÄR;HL - 94;Swedish vessel;80;Coastal Laboratory - DCF;30;Sub-30 (Bottenhavet);5 362;62 02,000;17 45,000;;;180;;;;;;;;314;OTB Otter trawl bottom;OTB BOTTOM TRAWL FOR HERRING;0;;;;;;;;;Valid;SLOT.2015.999;6202;1745;62.033;17.75;0;0;0;;0;0;;0;;
2015;2015-03-21 00:00;SECT;SETTE MARI;GE - 49;Swedish vessel;80;Coastal Laboratory - DCF;30;Sub-30 (Bottenhavet);5 163;61 09,000;18 03,000;;;765;;;;;;;;314;OTB Otter trawl bottom;OTB BOTTOM TRAWL FOR HERRING;0;;;;;;;;;Valid;SECT.2015.999;6109;1803;61.15;18.05;0;0;0;;0;0;;0;;
2016;2016-05-04 00:00;SFB-6968;ÖRNÖ;HL - 4;Swedish vessel;80;Coastal Laboratory - DCF;30;Sub-30 (Bottenhavet);5 262;61 45,000;17 27,000;;;300;;;;;;;;721;GNS Gillnet set;GNS GILL NET FOR HERRING;0;;;;;;;;;Valid;SFB-6968.2016.999;6145;1727;61.75;17.45;0;0;0;;0;0;;0;;
2016;2016-05-23 00:00;SFC-9622;FILIP;UÅ - 62;Swedish vessel;80;Coastal Laboratory - DCF;31;Sub-31 (Bottenviken);5 665;63 37,000;20 25,000;;;300;;;;;;;;721;GNS Gillnet set;GNS GILL NET FOR HERRING;0;;;;;;;;;Valid;SFC-9622.2016.999;6337;2025;63.617;20.417;0;0;0;;0;0;;0;;
2016;2016-11-16 00:00;SFC-2755;;SN - 8;Swedish vessel;80;Coastal Laboratory - DCF;30;Sub-30 (Bottenhavet);5 162;61 22,000;17 10,000;;;40;;;;;;;;314;OTB Otter trawl bottom;OTB BOTTOM TRAWL FOR HERRING;0;;;;;;;;;Valid;SFC-2755.2016.999;6122;1710;61.367;17.167;0;0;0;;0;0;;0;;
2015;2015-02-27 06:23;OXBH;DANA;;Research vessel;6;BITS;25;Sub-25 (Östersjön-Södra centrala V);4 060;55 41,340;15 04,690;55 41,590;15 07,350;30;3;2;81;65;69;;67;319;OTB Otter trawl bottom;TV3 BOTTOM TRAWL FOR COD 930 MESH;;;;;;"Thyborön 100""";4;75;;Valid;OXBH.2015.10;5541.34;1504.69;55.689;15.078;81.29978477;266.7315773;42.476928;208;38.82285677;127.3715773;492.1259843;0.453652799;1;1
2015;2015-03-01 11:45;OXBH;DANA;;Research vessel;6;BITS;28;Sub-28 (Östersjön-Öster om Gotland);4 364;57 23,000;19 12,000;57 21,800;19 10,400;30;3;2;;80;89;;85;319;OTB Otter trawl bottom;TV3 BOTTOM TRAWL FOR COD 930 MESH;;;;;;"Thyborön 100""";4;75;;No oxygen;OXBH.2015.37;5723;1912;57.383;19.2;81.29978477;266.7315773;42.476928;208;38.82285677;127.3715773;492.1259843;0.453652799;1;1
2016;2016-11-23 09:46;OXBH;DANA;;Research vessel;6;BITS;28;Sub-28 (Östersjön-Öster om Gotland);4 464;57 53,080;19 25,390;57 54,370;19 26,270;30;3;1;20;48;47;;47;319;OTB Otter trawl bottom;TV3 BOTTOM TRAWL FOR COD 930 MESH;;;;;;"Thyborön 100""";4;75;;Valid;OXBH.2016.30;5753.08;1925.39;57.885;19.423;81.29978477;266.7315773;42.476928;208;38.82285677;127.3715773;492.1259843;0.453652799;1;1
2015;2015-03-01 07:47;OXBH;DANA;;Research vessel;6;BITS;28;Sub-28 (Östersjön-Öster om Gotland);4 363;57 10,570;18 52,330;57 10,130;18 50,160;25;3;1;250;53;47;;51;319;OTB Otter trawl bottom;TV3 BOTTOM TRAWL FOR COD 930 MESH;;;;;;"Thyborön 100""";4;75;;Valid;OXBH.2015.33;5710.57;1852.33;57.176;18.872;81.29978477;266.7315773;42.476928;208;38.82285677;127.3715773;492.1259843;0.453652799;1;1
2016;2016-10-10 13:30;OXBH;DANA;;Research vessel;2;Acoustics (BIAS, Hersur) ;28;Sub-28 (Östersjön-Öster om Gotland);4 364;57 07,530;19 20,760;57 05,940;19 18,660;40;3;2;216;171;215;;172;321;OTM Otter trawl midwater;FOTÖ ONEB PEL.TR 3.2M 6MM 2010;;;;;;Tyborön VF 15;4;108;;Valid;OXBH.2016.61;5707.53;1920.76;57.126;19.346;0;0;0;;0;0;;0;;1
2016;2016-10-08 14:34;OXBH;DANA;;Research vessel;2;Acoustics (BIAS, Hersur) ;29S;Sub-29S (Skärgårdshavet, S 59.30);4 665;58 47,120;20 20,809;58 48,081;20 17,599;37;3;2;300;200;194;;199;321;OTM Otter trawl midwater;Fotö oneboat pelag floatstock.14;;;;;;Tyborön VF 15;4;108;;Valid;OXBH.2016.45;5847.12;2020.809;58.785;20.347;0;0;0;;0;0;;0;;0.9
2016;2016-10-03 22:13;OXBH;DANA;;Research vessel;2;Acoustics (BIAS, Hersur) ;25;Sub-25 (Östersjön-Södra centrala V);4 059;55 50,471;14 45,144;55 52,877;14 45,733;41;4;2;8;36;36;;35;321;OTM Otter trawl midwater;Fotö oneboat pelag floatstock.14;;;;;;Tyborön VF 15;4;108;;Valid;OXBH.2016.6;5550.471;1445.144;55.841;14.752;0;0;0;;0;0;;0;;0.8
2016;2016-11-21 07:17;OXBH;DANA;;Research vessel;6;BITS;26;Sub-26 (Östersjön-Södra centrala Ö);4 063;55 55,200;18 35,500;55 55,120;18 38,170;30;3;2;93;114;113;;114;319;OTB Otter trawl bottom;TV3 BOTTOM TRAWL FOR COD 930 MESH;;;;;;"Thyborön 100""";4;75;;Valid;OXBH.2016.15;5555.2;1835.5;55.92;18.592;81.29978477;266.7315773;42.476928;208;38.82285677;127.3715773;492.1259843;0.453652799;1;1
2015;2015-10-01 07:05;OXBH;DANA;;Research vessel;2;Acoustics (BIAS, Hersur) ;25;Sub-25 (Östersjön-Södra centrala V);4 059;55 35,434;14 39,997;55 33,401;14 40,160;35;3;2;177;80;68;;74;321;OTM Otter trawl midwater;FOTÖ ONEB PEL.TR 3.2M 6MM 2010;;;;;;Tyborön VF 15;4;108;;Valid;OXBH.2015.4;5535.434;1439.997;55.591;14.667;0;0;0;;0;0;;0;;0.9
2016;2016-11-25 07:17;OXBH;DANA;;Research vessel;6;BITS;27;Sub-27 (Östersjön-Väster om Gotland);4 362;57 01,360;17 57,390;56 59,890;17 57,050;30;3;1;188;65;63;;65;319;OTB Otter trawl bottom;TV3 BOTTOM TRAWL FOR COD 930 MESH;;;;;;"Thyborön 100""";4;75;;Valid;OXBH.2016.47;5701.36;1757.39;57.023;17.957;81.29978477;266.7315773;42.476928;208;38.82285677;127.3715773;492.1259843;0.453652799;1;1
2015;2015-03-07 09:11;OXBH;DANA;;Research vessel;6;BITS;25;Sub-25 (Östersjön-Södra centrala V);4 060;55 47,860;15 57,800;55 47,840;15 55,140;30;3;2;269;61;60;;61;319;OTB Otter trawl bottom;TV3 BOTTOM TRAWL FOR COD 930 MESH;;;;;;"Thyborön 100""";4;75;;Valid;OXBH.2015.87;5547.86;1557.8;55.798;15.963;81.29978477;266.7315773;42.476928;208;38.82285677;127.3715773;492.1259843;0.453652799;1;1
2015;2015-10-09 12:04;OXBH;DANA;;Research vessel;2;Acoustics (BIAS, Hersur) ;25;Sub-25 (Östersjön-Södra centrala V);4 062;55 46,413;17 41,430;55 45,117;17 45,598;46;4;3;119;55;59;;58;321;OTM Otter trawl midwater;FOTÖ ONEB PEL.TR 3.2M 6MM 2010;;;;;;Tyborön VF 15;4;108;;Valid;OXBH.2015.88;5546.413;1741.43;55.774;17.691;0;0;0;;0;0;;0;;0.8
2015;2015-10-06 06:15;OXBH;DANA;;Research vessel;2;Acoustics (BIAS, Hersur) ;29S;Sub-29S (Skärgårdshavet, S 59.30);4 665;58 46,992;20 28,780;58 44,012;20 29,829;51;4;3;170;157;152;;159;321;OTM Otter trawl midwater;FOTÖ ONEB PEL.TR 3.2M 6MM 2010;;;;;;Tyborön VF 15;4;108;;Valid;OXBH.2015.56;5846.992;2028.78;58.783;20.48;0;0;0;;0;0;;0;;0.8
2016;2016-11-20 06:47;OXBH;DANA;;Research vessel;6;BITS;25;Sub-25 (Östersjön-Södra centrala V);4 062;55 46,630;17 42,000;55 48,050;17 41,050;30;3;2;339;58;55;;57;319;OTB Otter trawl bottom;TV3 BOTTOM TRAWL FOR COD 930 MESH;;;;;;"Thyborön 100""";4;75;;Valid;OXBH.2016.6;5546.63;1742;55.777;17.7;81.29978477;266.7315773;42.476928;208;38.82285677;127.3715773;492.1259843;0.453652799;1;1
2016;2016-02-21 12:22;OXBH;DANA;;Research vessel;6;BITS;25;Sub-25 (Östersjön-Södra centrala V);4 059;55 40,990;14 29,880;55 41,870;14 32,040;30;3;2;54;49;46;;48;319;OTB Otter trawl bottom;TV3 BOTTOM TRAWL FOR COD 930 MESH;;;;;;"Thyborön 100""";4;75;;Valid;OXBH.2016.6;5540.99;1429.88;55.683;14.498;81.29978477;266.7315773;42.476928;208;38.82285677;127.3715773;492.1259843;0.453652799;1;1
2016;2016-10-12 10:45;OXBH;DANA;;Research vessel;2;Acoustics (BIAS, Hersur) ;27;Sub-27 (Östersjön-Väster om Gotland);4 261;56 37,280;16 57,900;56 39,640;16 59,770;60;3;3;60;68;66;;67;321;OTM Otter trawl midwater;Fotö oneboat pelag floatstock.14;;;;;;Tyborön VF 15;4;108;;Valid;OXBH.2016.79;5637.28;1657.9;56.621;16.965;0;0;0;;0;0;;0;;1.1
2015;2015-10-04 00:38;OXBH;DANA;;Research vessel;2;Acoustics (BIAS, Hersur) ;27;Sub-27 (Östersjön-Väster om Gotland);4 563;58 03,510;18 13,120;58 03,520;18 09,430;32;4;2;270;113;96;;100;321;OTM Otter trawl midwater;FOTÖ ONEB PEL.TR 3.2M 6MM 2010;;;;;;Tyborön VF 15;4;108;;Valid;OXBH.2015.34;5803.51;1813.12;58.059;18.219;0;0;0;;0;0;;0;;0.8
2015;2015-11-27 07:00;OXBH;DANA;;Research vessel;6;BITS;27;Sub-27 (Östersjön-Väster om Gotland);4 362;57 06,000;17 17,100;57 07,500;17 17,450;30;3;2;;71;74;;73;316;OTB Otter trawl bottom;TV 112 COD TRAWL;;;;;;"Thyborön 100""";4;75;;No oxygen;OXBH.2015.55;5706;1717.1;57.1;17.285;81.29978477;266.7315773;42.476928;208;38.82285677;127.3715773;492.1259843;0.453652799;1;1
2016;2016-11-20 09:33;OXBH;DANA;;Research vessel;6;BITS;26;Sub-26 (Östersjön-Södra centrala Ö);4 163;56 05,950;18 05,060;56 06,430;18 07,620;30;3;2;71;54;54;;56;319;OTB Otter trawl bottom;TV3 BOTTOM TRAWL FOR COD 930 MESH;;;;;;"Thyborön 100""";4;75;;Valid;OXBH.2016.7;5605.95;1805.06;56.099;18.084;81.29978477;266.7315773;42.476928;208;38.82285677;127.3715773;492.1259843;0.453652799;1;1
2016;2016-02-29 09:42;OXBH;DANA;;Research vessel;6;BITS;25;Sub-25 (Östersjön-Södra centrala V);4 162;56 05,070;17 24,690;56 04,270;17 22,390;30;3;2;238;41;41;;41;319;OTB Otter trawl bottom;TV3 BOTTOM TRAWL FOR COD 930 MESH;;;;;;"Thyborön 100""";4;75;;Valid;OXBH.2016.83;5605.07;1724.69;56.085;17.412;81.29978477;266.7315773;42.476928;208;38.82285677;127.3715773;492.1259843;0.453652799;1;1
2015;2015-10-01 16:43;OXBH;DANA;;Research vessel;2;Acoustics (BIAS, Hersur) ;25;Sub-25 (Östersjön-Södra centrala V);4 060;55 34,061;15 23,672;55 32,672;15 27,520;49;4;3;118;71;73;;72;321;OTM Otter trawl midwater;FOTÖ ONEB PEL.TR 3.2M 6MM 2010;;;;;;Tyborön VF 15;4;108;;Valid;OXBH.2015.8;5534.061;1523.672;55.568;15.395;0;0;0;;0;0;;0;;0.8
2015;2015-10-05 00:40;OXBH;DANA;;Research vessel;2;Acoustics (BIAS, Hersur) ;27;Sub-27 (Östersjön-Väster om Gotland);4 663;58 53,240;18 31,930;58 51,680;18 28,740;40;4;3;226;78;118;;75;321;OTM Otter trawl midwater;FOTÖ ONEB PEL.TR 3.2M 6MM 2010;;;;;;Tyborön VF 15;4;108;;Valid;OXBH.2015.44;5853.24;1831.93;58.887;18.532;0;0;0;;0;0;;0;;0.7
2016;2016-10-12 14:50;OXBH;DANA;;Research vessel;2;Acoustics (BIAS, Hersur) ;25;Sub-25 (Östersjön-Södra centrala V);4 162;56 27,131;17 06,104;56 26,245;17 03,798;30;;;;;;;;321;OTM Otter trawl midwater;Fotö oneboat pelag floatstock.14;;;;;;Tyborön VF 15;4;108;;Invalid;OXBH.2016.81;5627.131;1706.104;56.452;17.102;0;0;0;;0;0;;0;;
2015;2015-10-08 06:34;OXBH;DANA;;Research vessel;2;Acoustics (BIAS, Hersur) ;28;Sub-28 (Östersjön-Öster om Gotland);4 263;56 38,492;18 57,044;56 35,193;18 56,936;56;4;3;181;127;132;;130;321;OTM Otter trawl midwater;FOTÖ ONEB PEL.TR 3.2M 6MM 2010;;;;;;Tyborön VF 15;4;108;;Valid;OXBH.2015.76;5638.492;1857.044;56.642;18.951;0;0;0;;0;0;;0;;0.8
2016;2016-11-25 13:28;OXBH;DANA;;Research vessel;6;BITS;27;Sub-27 (Östersjön-Väster om Gotland);4 261;56 34,220;16 51,150;56 33,260;16 50,590;20;3;1;198;61;62;;62;319;OTB Otter trawl bottom;TV3 BOTTOM TRAWL FOR COD 930 MESH;;;;;;"Thyborön 100""";4;75;;Valid;OXBH.2016.50;5634.22;1651.15;56.57;16.853;81.29978477;266.7315773;42.476928;208;38.82285677;127.3715773;492.1259843;0.453652799;1;1
2015;2015-02-27 15:30;OXBH;DANA;;Research vessel;6;BITS;25;Sub-25 (Östersjön-Södra centrala V);4 060;55 50,080;15 56,530;55 50,710;15 58,910;30;3;1;65;56;56;;57;319;OTB Otter trawl bottom;TV3 BOTTOM TRAWL FOR COD 930 MESH;;;;;;"Thyborön 100""";4;75;;Valid;OXBH.2015.17;5550.08;1556.53;55.835;15.942;81.29978477;266.7315773;42.476928;208;38.82285677;127.3715773;492.1259843;0.453652799;1;1
2015;2015-03-06 06:17;OXBH;DANA;;Research vessel;6;BITS;26;Sub-26 (Östersjön-Södra centrala Ö);4 163;56 02,350;18 56,290;56 01,250;18 54,450;30;3;2;223;122;121;;121;319;OTB Otter trawl bottom;TV3 BOTTOM TRAWL FOR COD 930 MESH;;;;;;"Thyborön 100""";4;75;;Valid;OXBH.2015.79;5602.35;1856.29;56.039;18.938;81.29978477;266.7315773;42.476928;208;38.82285677;127.3715773;492.1259843;0.453652799;1;1
2016;2016-02-21 09:26;OXBH;DANA;;Research vessel;6;BITS;25;Sub-25 (Östersjön-Södra centrala V);4 059;55 36,770;14 36,300;55 36,000;14 33,960;30;3;2;240;67;65;;66;319;OTB Otter trawl bottom;TV3 BOTTOM TRAWL FOR COD 930 MESH;;;;;;"Thyborön 100""";4;75;;Valid;OXBH.2016.4;5536.77;1436.3;55.613;14.605;81.29978477;266.7315773;42.476928;208;38.82285677;127.3715773;492.1259843;0.453652799;1;1
2016;2016-08-29 00:00;SFB-2741;ATHENA;HA - 26;Swedish vessel;80;Coastal Laboratory - DCF;31;Sub-31 (Bottenviken);6 067;65 44,000;22 42,000;;;720;;;;;;;;721;GNS Gillnet set;GNS GILL NET FOR HERRING;0;;;;;;;;;Valid;SFB-2741.2016.999;6544;2242;65.733;22.7;0;0;0;;0;0;;0;;
2016;2016-11-23 00:00;SFC-2755;;SN - 8;Swedish vessel;80;Coastal Laboratory - DCF;30;Sub-30 (Bottenhavet);5 162;61 20,000;17 10,000;;;40;;;;;;;;314;OTB Otter trawl bottom;OTB BOTTOM TRAWL FOR HERRING;0;;;;;;;;;Valid;SFC-2755.2016.999;6120;1710;61.333;17.167;0;0;0;;0;0;;0;;
2016;2016-05-10 00:00;SFB-9664;;SN - 30;Swedish vessel;80;Coastal Laboratory - DCF;30;Sub-30 (Bottenhavet);5 162;61 23,000;17 08,000;;;720;;;;;;;;721;GNS Gillnet set;GNS GILL NET FOR HERRING;0;;;;;;;;;Valid;SFB-9664.2016.999;6123;1708;61.383;17.133;0;0;0;;0;0;;0;;
2016;2016-04-01 00:00;SMDA;VILJA AV ENÅNGER;HL - 13;Swedish vessel;80;Coastal Laboratory - DCF;30;Sub-30 (Bottenhavet);5 162;61 07,000;17 51,000;;;540;;;;;;;;314;OTB Otter trawl bottom;OTB BOTTOM TRAWL FOR HERRING;0;;;;;;;;;Valid;SMDA.2016.999;6107;1751;61.117;17.85;0;0;0;;0;0;;0;;
2016;2016-10-06 18:16;OXBH;DANA;;Research vessel;2;Acoustics (BIAS, Hersur) ;27;Sub-27 (Östersjön-Väster om Gotland);4 562;58 22,689;17 27,683;58 22,574;17 31,164;34;3;2;94;65;77;;70;321;OTM Otter trawl midwater;Fotö oneboat pelag floatstock.14;;;;;;Tyborön VF 15;4;108;;Valid;OXBH.2016.29;5822.689;1727.683;58.378;17.461;0;0;0;;0;0;;0;;0.9
2015;2015-03-04 15:05;OXBH;DANA;;Research vessel;6;BITS;27;Sub-27 (Östersjön-Väster om Gotland);4 261;56 43,540;16 59,610;56 42,100;16 59,040;30;3;1;192;64;66;;66;319;OTB Otter trawl bottom;TV3 BOTTOM TRAWL FOR COD 930 MESH;;;;;;"Thyborön 100""";4;75;;Valid;OXBH.2015.66;5643.54;1659.61;56.726;16.994;81.29978477;266.7315773;42.476928;208;38.82285677;127.3715773;492.1259843;0.453652799;1;1
2016;2016-02-23 15:55;OXBH;DANA;;Research vessel;6;BITS;26;Sub-26 (Östersjön-Södra centrala Ö);4 163;56 12,640;18 21,960;56 11,630;18 21,250;22;3;1;200;69;69;;69;319;OTB Otter trawl bottom;TV3 BOTTOM TRAWL FOR COD 930 MESH;;;;;;"Thyborön 100""";4;75;;Valid;OXBH.2016.25;5612.64;1821.96;56.211;18.366;81.29978477;266.7315773;42.476928;208;38.82285677;127.3715773;492.1259843;0.453652799;1;1
2015;2015-03-04 11:44;OXBH;DANA;;Research vessel;6;BITS;27;Sub-27 (Östersjön-Väster om Gotland);4 362;57 05,860;17 17,050;57 07,360;17 17,420;30;3;2;8;73;72;;73;319;OTB Otter trawl bottom;TV3 BOTTOM TRAWL FOR COD 930 MESH;;;;;;"Thyborön 100""";4;75;;Valid;OXBH.2015.65;5705.86;1717.05;57.098;17.284;81.29978477;266.7315773;42.476928;208;38.82285677;127.3715773;492.1259843;0.453652799;1;1
2016;2016-02-26 13:00;OXBH;DANA;;Research vessel;6;BITS;27;Sub-27 (Östersjön-Väster om Gotland);4 463;57 44,500;18 10,000;57 46,000;18 10,000;30;3;2;;104;104;;104;319;OTB Otter trawl bottom;TV3 BOTTOM TRAWL FOR COD 930 MESH;;;;;;"Thyborön 100""";4;75;;No oxygen;OXBH.2016.59;5744.5;1810;57.742;18.167;81.29978477;266.7315773;42.476928;208;38.82285677;127.3715773;492.1259843;0.453652799;1;1
2015;2015-03-03 15:00;OXBH;DANA;;Research vessel;6;BITS;27;Sub-27 (Östersjön-Väster om Gotland);4 362;57 29,500;17 34,100;57 28,100;17 33,000;30;3;2;;69;78;;74;319;OTB Otter trawl bottom;TV3 BOTTOM TRAWL FOR COD 930 MESH;;;;;;"Thyborön 100""";4;75;;No oxygen;OXBH.2015.59;5729.5;1734.1;57.492;17.568;81.29978477;266.7315773;42.476928;208;38.82285677;127.3715773;492.1259843;0.453652799;1;1
2016;2016-11-24 09:45;OXBH;DANA;;Research vessel;6;BITS;27;Sub-27 (Östersjön-Väster om Gotland);4 362;57 02,500;17 52,400;57 04,000;17 52,200;30;3;2;;82;85;;83;319;OTB Otter trawl bottom;TV3 BOTTOM TRAWL FOR COD 930 MESH;;;;;;"Thyborön 100""";4;75;;No oxygen;OXBH.2016.45;5702.5;1752.4;57.042;17.873;81.29978477;266.7315773;42.476928;208;38.82285677;127.3715773;492.1259843;0.453652799;1;1
2015;2015-03-02 07:08;OXBH;DANA;;Research vessel;6;BITS;28;Sub-28 (Östersjön-Öster om Gotland);4 464;57 43,210;19 10,640;57 42,210;19 08,590;30;3;1;228;44;41;;42;319;OTB Otter trawl bottom;TV3 BOTTOM TRAWL FOR COD 930 MESH;;;;;;"Thyborön 100""";4;75;;Valid;OXBH.2015.42;5743.21;1910.64;57.72;19.177;81.29978477;266.7315773;42.476928;208;38.82285677;127.3715773;492.1259843;0.453652799;1;1
2015;2015-10-02 11:53;OXBH;DANA;;Research vessel;2;Acoustics (BIAS, Hersur) ;27;Sub-27 (Östersjön-Väster om Gotland);4 262;56 45,310;17 08,830;56 43,520;17 07,590;30;4;2;201;86;88;;87;321;OTM Otter trawl midwater;FOTÖ ONEB PEL.TR 3.2M 6MM 2010;;;;;;Tyborön VF 15;4;108;;Valid;OXBH.2015.18;5645.31;1708.83;56.755;17.147;0;0;0;;0;0;;0;;0.8
2015;2015-10-08 18:03;OXBH;DANA;;Research vessel;2;Acoustics (BIAS, Hersur) ;26;Sub-26 (Östersjön-Södra centrala Ö);4 163;56 11,087;18 29,996;56 12,907;18 30,117;30;4;2;2;101;101;;101;321;OTM Otter trawl midwater;FOTÖ ONEB PEL.TR 3.2M 6MM 2010;;;;;;Tyborön VF 15;4;108;;Valid;OXBH.2015.80;5611.087;1829.996;56.185;18.5;0;0;0;;0;0;;0;;0.8
2016;2016-02-23 13:57;OXBH;DANA;;Research vessel;6;BITS;26;Sub-26 (Östersjön-Södra centrala Ö);4 163;56 19,450;18 24,260;56 20,590;18 26,040;30;3;2;41;42;42;;42;319;OTB Otter trawl bottom;TV3 BOTTOM TRAWL FOR COD 930 MESH;;;;;;"Thyborön 100""";4;75;;Valid;OXBH.2016.23;5619.45;1824.26;56.324;18.404;81.29978477;266.7315773;42.476928;208;38.82285677;127.3715773;492.1259843;0.453652799;1;1
2015;2015-03-07 12:01;OXBH;DANA;;Research vessel;6;BITS;25;Sub-25 (Östersjön-Södra centrala V);4 060;55 46,200;15 18,060;55 46,230;15 15,410;30;3;2;272;57;56;;56;319;OTB Otter trawl bottom;TV3 BOTTOM TRAWL FOR COD 930 MESH;;;;;;"Thyborön 100""";4;75;;Valid;OXBH.2015.88;5546.2;1518.06;55.77;15.301;81.29978477;266.7315773;42.476928;208;38.82285677;127.3715773;492.1259843;0.453652799;1;1
2016;2016-11-27 11:18;OXBH;DANA;;Research vessel;6;BITS;25;Sub-25 (Östersjön-Södra centrala V);4 059;55 40,380;14 29,360;55 39,570;14 31,650;30;3;2;122;49;53;;51;319;OTB Otter trawl bottom;TV3 BOTTOM TRAWL FOR COD 930 MESH;;;;;;"Thyborön 100""";4;75;;Additional valid stations not used for index calculations;OXBH.2016.62;5540.38;1429.36;55.673;14.489;81.29978477;266.7315773;42.476928;208;38.82285677;127.3715773;492.1259843;0.453652799;1;1
2016;2016-11-24 08:30;OXBH;DANA;;Research vessel;6;BITS;27;Sub-27 (Östersjön-Väster om Gotland);4 362;57 29,000;17 43,500;57 27,500;17 44,300;30;3;2;;108;108;;108;319;OTB Otter trawl bottom;TV3 BOTTOM TRAWL FOR COD 930 MESH;;;;;;"Thyborön 100""";4;75;;No oxygen;OXBH.2016.37;5729;1743.5;57.483;17.725;81.29978477;266.7315773;42.476928;208;38.82285677;127.3715773;492.1259843;0.453652799;1;1
2015;2015-10-07 07:09;OXBH;DANA;;Research vessel;2;Acoustics (BIAS, Hersur) ;28;Sub-28 (Östersjön-Öster om Gotland);4 464;57 40,640;19 23,076;57 39,951;19 24,821;50;3;3;161;76;82;;79;321;OTM Otter trawl midwater;FOTÖ ONEB PEL.TR 3.2M 6MM 2010;;;;;;Tyborön VF 15;4;108;;Valid;OXBH.2015.66;5740.64;1923.076;57.677;19.385;0;0;0;;0;0;;0;;0.9
2015;2015-11-25 11:30;OXBH;DANA;;Research vessel;6;BITS;27;Sub-27 (Östersjön-Väster om Gotland);4 362;57 27,600;17 44,250;57 29,000;17 43,600;30;3;2;;105;109;;107;316;OTB Otter trawl bottom;TV 112 COD TRAWL;;;;;;"Thyborön 100""";4;75;;No oxygen;OXBH.2015.41;5727.6;1744.25;57.46;17.738;81.29978477;266.7315773;42.476928;208;38.82285677;127.3715773;492.1259843;0.453652799;1;1
2016;2016-02-27 15:30;OXBH;DANA;;Research vessel;6;BITS;27;Sub-27 (Östersjön-Väster om Gotland);4 362;57 04,400;17 54,600;57 02,900;17 55,100;30;3;2;;76;76;;76;319;OTB Otter trawl bottom;TV3 BOTTOM TRAWL FOR COD 930 MESH;;;;;;"Thyborön 100""";4;75;;No oxygen;OXBH.2016.71;5704.4;1754.6;57.073;17.91;81.29978477;266.7315773;42.476928;208;38.82285677;127.3715773;492.1259843;0.453652799;1;1
2016;2016-10-13 12:50;OXBH;DANA;;Research vessel;2;Acoustics (BIAS, Hersur) ;25;Sub-25 (Östersjön-Södra centrala V);4 061;55 34,920;16 17,900;55 34,590;16 11,830;74;3;3;265;70;75;;73;321;OTM Otter trawl midwater;Fotö oneboat pelag floatstock.14;;;;;;Tyborön VF 15;4;108;;Valid;OXBH.2016.90;5534.92;1617.9;55.582;16.298;0;0;0;;0;0;;0;;1.1
2015;2015-11-27 08:00;OXBH;DANA;;Research vessel;6;BITS;27;Sub-27 (Östersjön-Väster om Gotland);4 262;56 56,500;17 10,500;56 57,900;17 11,250;30;3;2;;70;74;;72;316;OTB Otter trawl bottom;TV 112 COD TRAWL;;;;;;"Thyborön 100""";4;75;;No oxygen;OXBH.2015.57;5656.5;1710.5;56.942;17.175;81.29978477;266.7315773;42.476928;208;38.82285677;127.3715773;492.1259843;0.453652799;1;1
2016;2016-02-29 13:00;OXBH;DANA;;Research vessel;6;BITS;25;Sub-25 (Östersjön-Södra centrala V);4 061;55 47,720;16 41,800;55 46,300;16 42,620;30;3;2;162;48;50;;49;319;OTB Otter trawl bottom;TV3 BOTTOM TRAWL FOR COD 930 MESH;;;;;;"Thyborön 100""";4;75;;Valid;OXBH.2016.84;5547.72;1641.8;55.795;16.697;81.29978477;266.7315773;42.476928;208;38.82285677;127.3715773;492.1259843;0.453652799;1;1
2016;2016-10-12 08:00;OXBH;DANA;;Research vessel;2;Acoustics (BIAS, Hersur) ;27;Sub-27 (Östersjön-Väster om Gotland);4 262;56 44,971;17 18,660;56 44,817;17 15,522;34;3;2;264;87;83;;84;321;OTM Otter trawl midwater;Fotö oneboat pelag floatstock.14;;;;;;Tyborön VF 15;4;108;;Valid;OXBH.2016.77;5644.971;1718.66;56.75;17.311;0;0;0;;0;0;;0;;1
2016;2016-10-03 18:18;OXBH;DANA;;Research vessel;2;Acoustics (BIAS, Hersur) ;25;Sub-25 (Östersjön-Södra centrala V);4 059;55 38,655;14 27,681;55 39,952;14 28,268;26;3;1;14.3;53;50;;52;321;OTM Otter trawl midwater;Fotö oneboat pelag floatstock.14;;;;;;Tyborön VF 15;4;108;;Valid;OXBH.2016.4;5538.655;1427.681;55.644;14.461;0;0;0;;0;0;;0;;1
2016;2016-03-01 14:40;OXBH;DANA;;Research vessel;6;BITS;25;Sub-25 (Östersjön-Södra centrala V);4 060;55 47,870;15 57,300;55 47,830;15 54,610;30;3;2;268;61;60;;61;319;OTB Otter trawl bottom;TV3 BOTTOM TRAWL FOR COD 930 MESH;;;;;;"Thyborön 100""";4;75;;Valid;OXBH.2016.93;5547.87;1557.3;55.798;15.955;81.29978477;266.7315773;42.476928;208;38.82285677;127.3715773;492.1259843;0.453652799;1;1
2016;2016-03-01 12:20;OXBH;DANA;;Research vessel;6;BITS;25;Sub-25 (Östersjön-Södra centrala V);4 061;55 52,240;16 04,060;55 52,170;16 01,370;30;3;2;267;53;54;;54;319;OTB Otter trawl bottom;TV3 BOTTOM TRAWL FOR COD 930 MESH;;;;;;"Thyborön 100""";4;75;;Valid;OXBH.2016.91;5552.24;1604.06;55.871;16.068;81.29978477;266.7315773;42.476928;208;38.82285677;127.3715773;492.1259843;0.453652799;1;1
2015;2015-10-03 20:27;OXBH;DANA;;Research vessel;2;Acoustics (BIAS, Hersur) ;27;Sub-27 (Östersjön-Väster om Gotland);4 463;57 51,730;18 15,090;57 53,520;18 15,920;30;4;2;13;111;111;;111;321;OTM Otter trawl midwater;FOTÖ ONEB PEL.TR 3.2M 6MM 2010;;;;;;Tyborön VF 15;4;108;;Valid;OXBH.2015.32;5751.73;1815.09;57.862;18.252;0;0;0;;0;0;;0;;0.8
2016;2016-11-19 11:45;OXBH;DANA;;Research vessel;6;BITS;25;Sub-25 (Östersjön-Södra centrala V);4 060;55 44,820;15 49,150;55 45,940;15 47,390;30;3;2;319;54;53;;55;319;OTB Otter trawl bottom;TV3 BOTTOM TRAWL FOR COD 930 MESH;;;;;;"Thyborön 100""";4;75;;Valid;OXBH.2016.4;5544.82;1549.15;55.747;15.819;81.29978477;266.7315773;42.476928;208;38.82285677;127.3715773;492.1259843;0.453652799;1;1
2015;2015-11-25 07:11;OXBH;DANA;;Research vessel;6;BITS;27;Sub-27 (Östersjön-Väster om Gotland);4 361;57 22,310;16 54,210;57 23,660;16 53,480;30;3;2;219;44;44;;44;316;OTB Otter trawl bottom;TV 112 COD TRAWL;;;;;;"Thyborön 100""";4;75;;Valid;OXBH.2015.37;5722.31;1654.21;57.372;16.904;81.29978477;266.7315773;42.476928;208;38.82285677;127.3715773;492.1259843;0.453652799;1;1
2016;2016-11-23 13:15;OXBH;DANA;;Research vessel;6;BITS;27;Sub-27 (Östersjön-Väster om Gotland);4 463;57 46,000;18 07,000;57 47,500;18 07,000;30;3;2;;106;106;;106;319;OTB Otter trawl bottom;TV3 BOTTOM TRAWL FOR COD 930 MESH;;;;;;"Thyborön 100""";4;75;;No oxygen;OXBH.2016.35;5746;1807;57.767;18.117;81.29978477;266.7315773;42.476928;208;38.82285677;127.3715773;492.1259843;0.453652799;1;1
2016;2016-10-14 05:59;OXBH;DANA;;Research vessel;2;Acoustics (BIAS, Hersur) ;25;Sub-25 (Östersjön-Södra centrala V);3 960;55 16,977;15 05,243;55 20,201;15 04,321;70;3;3;344;73;70;;72;321;OTM Otter trawl midwater;Fotö oneboat pelag floatstock.14;;;;;;Tyborön VF 15;4;108;;Valid;OXBH.2016.96;5516.977;1505.243;55.283;15.087;0;0;0;;0;0;;0;;1.1
2016;2016-10-12 03:02;OXBH;DANA;;Research vessel;2;Acoustics (BIAS, Hersur) ;27;Sub-27 (Östersjön-Väster om Gotland);4 262;56 40,381;17 45,880;56 42,930;17 40,495;73;3;4;310;60;78;;67;321;OTM Otter trawl midwater;Fotö oneboat pelag floatstock.14;;;;;;Tyborön VF 15;4;108;;Valid;OXBH.2016.75;5640.381;1745.88;56.673;17.765;0;0;0;;0;0;;0;;0.9
2016;2016-10-14 00:44;OXBH;DANA;;Research vessel;2;Acoustics (BIAS, Hersur) ;25;Sub-25 (Östersjön-Södra centrala V);3 960;55 22,320;15 37,780;55 20,950;15 35,460;39;3;2;224;102;99;;100;321;OTM Otter trawl midwater;Fotö oneboat pelag floatstock.14;;;;;;Tyborön VF 15;4;108;;Valid;OXBH.2016.94;5522.32;1537.78;55.372;15.63;0;0;0;;0;0;;0;;1
2015;2015-11-25 13:50;OXBH;DANA;;Research vessel;6;BITS;27;Sub-27 (Östersjön-Väster om Gotland);4 362;57 02,500;17 52,450;57 04,000;17 52,100;30;3;2;;83;85;;84;316;OTB Otter trawl bottom;TV 112 COD TRAWL;;;;;;"Thyborön 100""";4;75;;No oxygen;OXBH.2015.47;5702.5;1752.45;57.042;17.874;81.29978477;266.7315773;42.476928;208;38.82285677;127.3715773;492.1259843;0.453652799;1;1
2015;2015-10-02 05:06;OXBH;DANA;;Research vessel;2;Acoustics (BIAS, Hersur) ;25;Sub-25 (Östersjön-Södra centrala V);4 161;56 14,921;16 42,581;56 16,721;16 43,236;32;3;2;11;58;66;;62;321;OTM Otter trawl midwater;FOTÖ ONEB PEL.TR 3.2M 6MM 2010;;;;;;Tyborön VF 15;4;108;;Valid;OXBH.2015.14;5614.921;1642.581;56.249;16.71;0;0;0;;0;0;;0;;0.9
2015;2015-10-03 02:42;OXBH;DANA;;Research vessel;2;Acoustics (BIAS, Hersur) ;27;Sub-27 (Östersjön-Väster om Gotland);4 362;57 16,250;17 35,140;57 17,250;17 36,360;20;4;1;34;92;83;;90;321;OTM Otter trawl midwater;FOTÖ ONEB PEL.TR 3.2M 6MM 2010;;;;;;Tyborön VF 15;4;108;;Valid;OXBH.2015.24;5716.25;1735.14;57.271;17.586;0;0;0;;0;0;;0;;0.8
2016;2016-02-27 14:30;OXBH;DANA;;Research vessel;6;BITS;27;Sub-27 (Östersjön-Väster om Gotland);4 362;57 03,800;17 52,100;57 02,300;17 52,500;30;3;2;;83;85;;84;319;OTB Otter trawl bottom;TV3 BOTTOM TRAWL FOR COD 930 MESH;;;;;;"Thyborön 100""";4;75;;No oxygen;OXBH.2016.69;5703.8;1752.1;57.063;17.868;81.29978477;266.7315773;42.476928;208;38.82285677;127.3715773;492.1259843;0.453652799;1;1
2015;2015-11-20 12:10;OXBH;DANA;;Research vessel;6;BITS;25;Sub-25 (Östersjön-Södra centrala V);4 059;55 42,130;14 22,100;55 42,490;14 24,720;30;3;2;77;37;39;;38;316;OTB Otter trawl bottom;TV 112 COD TRAWL;;;;;;"Thyborön 100""";4;75;;Valid;OXBH.2015.6;5542.13;1422.1;55.702;14.368;81.29978477;266.7315773;42.476928;208;38.82285677;127.3715773;492.1259843;0.453652799;1;1
2015;2015-02-28 07:46;OXBH;DANA;;Research vessel;6;BITS;26;Sub-26 (Östersjön-Södra centrala Ö);4 163;56 24,190;18 29,180;56 22,890;18 27,770;30;3;2;211;33;35;;35;319;OTB Otter trawl bottom;TV3 BOTTOM TRAWL FOR COD 930 MESH;;;;;;"Thyborön 100""";4;75;;Valid;OXBH.2015.21;5624.19;1829.18;56.403;18.486;81.29978477;266.7315773;42.476928;208;38.82285677;127.3715773;492.1259843;0.453652799;1;1
2016;2016-10-13 08:35;OXBH;DANA;;Research vessel;2;Acoustics (BIAS, Hersur) ;25;Sub-25 (Östersjön-Södra centrala V);4 061;55 48,070;16 34,550;55 47,430;16 28,890;66;3;3;259;54;58;;56;321;OTM Otter trawl midwater;Fotö oneboat pelag floatstock.14;;;;;;Tyborön VF 15;4;108;;Valid;OXBH.2016.88;5548.07;1634.55;55.801;16.576;0;0;0;;0;0;;0;;1
2015;2015-10-04 03:47;OXBH;DANA;;Research vessel;2;Acoustics (BIAS, Hersur) ;27;Sub-27 (Östersjön-Väster om Gotland);4 562;58 04,901;17 36,037;58 03,167;17 33,213;41;4;2;220;130;127;;127;321;OTM Otter trawl midwater;FOTÖ ONEB PEL.TR 3.2M 6MM 2010;;;;;;Tyborön VF 15;4;108;;Valid;OXBH.2015.36;5804.901;1736.037;58.082;17.601;0;0;0;;0;0;;0;;0.8
2015;2015-10-05 22:47;OXBH;DANA;;Research vessel;2;Acoustics (BIAS, Hersur) ;29S;Sub-29S (Skärgårdshavet, S 59.30);4 764;59 24,171;19 51,163;59 22,803;19 54,312;45;4;3;130;46;44;;44;321;OTM Otter trawl midwater;FOTÖ ONEB PEL.TR 3.2M 6MM 2010;;;;;;Tyborön VF 15;4;108;;Valid;OXBH.2015.52;5924.171;1951.163;59.403;19.853;0;0;0;;0;0;;0;;0.8
2015;2015-10-03 11:36;OXBH;DANA;;Research vessel;2;Acoustics (BIAS, Hersur) ;27;Sub-27 (Östersjön-Väster om Gotland);4 462;57 54,290;17 17,430;57 51,720;17 17,510;46;3;3;179;99;106;;101;321;OTM Otter trawl midwater;FOTÖ ONEB PEL.TR 3.2M 6MM 2010;;;;;;Tyborön VF 15;4;108;;Valid;OXBH.2015.28;5754.29;1717.43;57.905;17.291;0;0;0;;0;0;;0;;0.9
2015;2015-04-29 00:00;SFC-9622;FILIP;UÅ - 62;Swedish vessel;80;Coastal Laboratory - DCF;31;Sub-31 (Bottenviken);5 665;63 37,000;20 25,000;;;240;;;;;;;;721;GNS Gillnet set;GNS GILL NET FOR HERRING;0;;;;;;;;;Valid;SFC-9622.2015.;6337;2025;63.617;20.417;0;0;0;;0;0;;0;;
2015;2015-03-26 00:00;SLRE;STJÄRNVIK;VG - 95;Swedish vessel;80;Coastal Laboratory - DCF;25;Sub-25 (Östersjön-Södra centrala V);3 961;55 13,000;16 05,000;;;360;;;;;;;;312;OTB Otter trawl bottom;OTB OTTER TRAWL BOTTOM;1;;;;;;;;;Valid;SLRE.2015.999;5513;1605;55.217;16.083;0;0;0;;0;0;;0;;
2015;2015-05-07 00:00;SFB-9664;;SN - 30;Swedish vessel;80;Coastal Laboratory - DCF;30;Sub-30 (Bottenhavet);5 162;61 23,000;17 06,000;;;720;;;;;;;;721;GNS Gillnet set;GNS GILL NET FOR HERRING;0;;;;;;;;;Valid;SFB-9664.2015.;6123;1706;61.383;17.1;0;0;0;;0;0;;0;;
2015;2015-10-13 00:00;SFC-2755;;SN - 8;Swedish vessel;80;Coastal Laboratory - DCF;30;Sub-30 (Bottenhavet);5 162;61 20,000;17 10,000;;;40;;;;;;;;314;OTB Otter trawl bottom;OTB BOTTOM TRAWL FOR HERRING;0;;;;;;;;;Valid;SFC-2755.2015.999;6120;1710;61.333;17.167;0;0;0;;0;0;;0;;
2015;2015-09-10 00:00;SFB-6968;ÖRNÖ;HL - 4;Swedish vessel;80;Coastal Laboratory - DCF;30;Sub-30 (Bottenhavet);5 262;61 45,000;17 28,000;;;360;;;;;;;;721;GNS Gillnet set;GNS GILL NET FOR HERRING;0;;;;;;;;;Valid;SFB-6968.2015.;6145;1728;61.75;17.467;0;0;0;;0;0;;0;;
2015;2015-04-20 00:00;SFB-6968;ÖRNÖ;HL - 4;Swedish vessel;80;Coastal Laboratory - DCF;30;Sub-30 (Bottenhavet);5 262;61 45,000;17 30,000;;;480;;;;;;;;721;GNS Gillnet set;GNS GILL NET FOR HERRING;0;;;;;;;;;Valid;SFB-6968.2015.;6145;1730;61.75;17.5;0;0;0;;0;0;;0;;
2016;2016-08-02 00:00;SFC-2455;SOFIA;GE - 5;Swedish vessel;80;Coastal Laboratory - DCF;30;Sub-30 (Bottenhavet);5 062;60 45,000;17 30,000;;;180;;;;;;;;721;GNS Gillnet set;GNS GILL NET FOR HERRING;0;;;;;;;;;Valid;SFC-2455.2016.999;6045;1730;60.75;17.5;0;0;0;;0;0;;0;;
2015;2015-10-07 01:54;OXBH;DANA;;Research vessel;2;Acoustics (BIAS, Hersur) ;28;Sub-28 (Östersjön-Öster om Gotland);4 464;57 54,582;19 36,536;57 52,903;19 39,640;40;4;2;136;73;96;;95;321;OTM Otter trawl midwater;FOTÖ ONEB PEL.TR 3.2M 6MM 2010;;;;;;Tyborön VF 15;4;108;;Valid;OXBH.2015.64;5754.582;1936.536;57.91;19.609;0;0;0;;0;0;;0;;0.8
2016;2016-02-22 12:18;OXBH;DANA;;Research vessel;6;BITS;25;Sub-25 (Östersjön-Södra centrala V);4 060;55 56,520;15 19,140;55 56,250;15 21,760;30;3;2;100;47;46;;46;319;OTB Otter trawl bottom;TV3 BOTTOM TRAWL FOR COD 930 MESH;;;;;;"Thyborön 100""";4;75;;Valid;OXBH.2016.14;5556.52;1519.14;55.942;15.319;81.29978477;266.7315773;42.476928;208;38.82285677;127.3715773;492.1259843;0.453652799;1;1
2016;2016-10-06 11:14;OXBH;DANA;;Research vessel;2;Acoustics (BIAS, Hersur) ;27;Sub-27 (Östersjön-Väster om Gotland);4 462;57 52,290;17 16,320;57 54,410;17 16,980;60;3;2;86;100;122;;103;321;OTM Otter trawl midwater;Fotö oneboat pelag floatstock.14;;;;;;Tyborön VF 15;4;108;;Valid;OXBH.2016.27;5752.29;1716.32;57.872;17.272;0;0;0;;0;0;;0;;1
2016;2016-10-11 17:52;OXBH;DANA;;Research vessel;2;Acoustics (BIAS, Hersur) ;26;Sub-26 (Östersjön-Södra centrala Ö);4 163;56 07,812;18 19,458;56 09,484;18 17,643;42;3;2;320;79;67;;74;321;OTM Otter trawl midwater;Fotö oneboat pelag floatstock.14;;;;;;Tyborön VF 15;4;108;;Valid;OXBH.2016.71;5607.812;1819.458;56.13;18.324;0;0;0;;0;0;;0;;0.9
2015;2015-10-01 02:47;OXBH;DANA;;Research vessel;2;Acoustics (BIAS, Hersur) ;25;Sub-25 (Östersjön-Södra centrala V);3 959;55 23,620;14 45,480;55 25,153;14 47,162;30;4;2;32;73;80;;77;321;OTM Otter trawl midwater;FOTÖ ONEB PEL.TR 3.2M 6MM 2010;;;;;;Tyborön VF 15;4;108;;Valid;OXBH.2015.2;5523.62;1445.48;55.394;14.758;0;0;0;;0;0;;0;;0.8
2016;2016-11-27 07:16;OXBH;DANA;;Research vessel;6;BITS;25;Sub-25 (Östersjön-Södra centrala V);4 059;55 42,130;14 22,150;55 42,480;14 24,750;30;3;2;77;36;38;;38;319;OTB Otter trawl bottom;TV3 BOTTOM TRAWL FOR COD 930 MESH;;;;;;"Thyborön 100""";4;75;;Invalid;OXBH.2016.59;5542.13;1422.15;55.702;14.369;81.29978477;266.7315773;42.476928;208;38.82285677;127.3715773;492.1259843;0.453652799;1;1
2015;2015-02-28 11:25;OXBH;DANA;;Research vessel;6;BITS;26;Sub-26 (Östersjön-Södra centrala Ö);4 163;56 19,330;18 32,250;56 20,820;18 33,230;30;3;2;359;79;72;;76;319;OTB Otter trawl bottom;TV3 BOTTOM TRAWL FOR COD 930 MESH;;;;;;"Thyborön 100""";4;75;;Valid;OXBH.2015.25;5619.33;1832.25;56.322;18.538;81.29978477;266.7315773;42.476928;208;38.82285677;127.3715773;492.1259843;0.453652799;1;1
2015;2015-11-25 10:45;OXBH;DANA;;Research vessel;6;BITS;27;Sub-27 (Östersjön-Väster om Gotland);4 362;57 28,380;17 33,310;57 29,750;17 34,320;30;3;1;21;77;66;;73;316;OTB Otter trawl bottom;TV 112 COD TRAWL;;;;;;"Thyborön 100""";4;75;;Valid;OXBH.2015.39;5728.38;1733.31;57.473;17.555;81.29978477;266.7315773;42.476928;208;38.82285677;127.3715773;492.1259843;0.453652799;1;1
2016;2016-10-09 22:47;OXBH;DANA;;Research vessel;2;Acoustics (BIAS, Hersur) ;28;Sub-28 (Östersjön-Öster om Gotland);4 464;57 48,890;19 29,040;57 50,310;19 35,470;72;3;4;68;76;71;;78;321;OTM Otter trawl midwater;Fotö oneboat pelag floatstock.14;;;;;;Tyborön VF 15;4;108;;Valid;OXBH.2016.55;5748.89;1929.04;57.815;19.484;0;0;0;;0;0;;0;;1
2016;2016-11-26 08:40;OXBH;DANA;;Research vessel;6;BITS;25;Sub-25 (Östersjön-Södra centrala V);4 161;56 29,000;16 57,500;56 27,500;16 58,000;30;3;2;;69;71;;70;319;OTB Otter trawl bottom;TV3 BOTTOM TRAWL FOR COD 930 MESH;;;;;;"Thyborön 100""";4;75;;No oxygen;OXBH.2016.55;5629;1657.5;56.483;16.958;81.29978477;266.7315773;42.476928;208;38.82285677;127.3715773;492.1259843;0.453652799;1;1
2016;2016-02-24 15:01;OXBH;DANA;;Research vessel;6;BITS;26;Sub-26 (Östersjön-Södra centrala Ö);4 163;56 23,780;18 29,610;56 22,500;18 28,130;30;3;2;213;36;38;;38;319;OTB Otter trawl bottom;TV3 BOTTOM TRAWL FOR COD 930 MESH;;;;;;"Thyborön 100""";4;75;;Valid;OXBH.2016.37;5623.78;1829.61;56.396;18.494;81.29978477;266.7315773;42.476928;208;38.82285677;127.3715773;492.1259843;0.453652799;1;1
2015;2015-10-07 11:58;OXBH;DANA;;Research vessel;2;Acoustics (BIAS, Hersur) ;28;Sub-28 (Östersjön-Öster om Gotland);4 364;57 23,840;19 12,067;57 20,338;19 13,745;60;4;4;166;81;100;;92;321;OTM Otter trawl midwater;FOTÖ ONEB PEL.TR 3.2M 6MM 2010;;;;;;Tyborön VF 15;4;108;;Valid;OXBH.2015.68;5723.84;1912.067;57.397;19.201;0;0;0;;0;0;;0;;0.8
2016;2016-10-05 00:19;OXBH;DANA;;Research vessel;2;Acoustics (BIAS, Hersur) ;25;Sub-25 (Östersjön-Södra centrala V);4 161;56 17,516;16 48,891;56 20,670;16 49,730;61;3;3;113;57;59;;59;321;OTM Otter trawl midwater;Fotö oneboat pelag floatstock.14;;;;;;Tyborön VF 15;4;108;;Valid;OXBH.2016.17;5617.516;1648.891;56.292;16.815;0;0;0;;0;0;;0;;0.9
2015;2015-11-23 13:36;OXBH;DANA;;Research vessel;6;BITS;28;Sub-28 (Östersjön-Öster om Gotland);4 364;57 12,030;19 03,020;57 13,490;19 03,840;30;3;2;17;84;85;;84;316;OTB Otter trawl bottom;TV 112 COD TRAWL;;;;;;"Thyborön 100""";4;75;;Valid;OXBH.2015.25;5712.03;1903.02;57.201;19.05;81.29978477;266.7315773;42.476928;208;38.82285677;127.3715773;492.1259843;0.453652799;1;1
2015;2015-10-06 02:08;OXBH;DANA;;Research vessel;2;Acoustics (BIAS, Hersur) ;29S;Sub-29S (Skärgårdshavet, S 59.30);4 765;59 14,976;20 13,410;59 13,862;20 12,437;20;4;1;205;73;71;;71;321;OTM Otter trawl midwater;FOTÖ ONEB PEL.TR 3.2M 6MM 2010;;;;;;Tyborön VF 15;4;108;;Valid;OXBH.2015.54;5914.976;2013.41;59.25;20.224;0;0;0;;0;0;;0;;0.8
2015;2015-10-10 03:36;OXBH;DANA;;Research vessel;2;Acoustics (BIAS, Hersur) ;25;Sub-25 (Östersjön-Södra centrala V);3 960;55 23,601;15 46,141;55 21,903;15 49,808;45;4;3;129;92;92;;92;321;OTM Otter trawl midwater;FOTÖ ONEB PEL.TR 3.2M 6MM 2010;;;;;;Tyborön VF 15;4;108;;Valid;OXBH.2015.94;5523.601;1546.141;55.393;15.769;0;0;0;;0;0;;0;;0.8
2016;2016-10-11 06:05;OXBH;DANA;;Research vessel;2;Acoustics (BIAS, Hersur) ;28;Sub-28 (Östersjön-Öster om Gotland);4 263;56 45,991;18 51,473;56 47,727;18 52,910;35;3;2;24;98;122;;110;321;OTM Otter trawl midwater;Fotö oneboat pelag floatstock.14;;;;;;Tyborön VF 15;4;108;;Valid;OXBH.2016.67;5645.991;1851.473;56.767;18.858;0;0;0;;0;0;;0;;0.9
2016;2016-02-23 06:31;OXBH;DANA;;Research vessel;6;BITS;25;Sub-25 (Östersjön-Södra centrala V);4 062;55 46,840;17 41,920;55 48,230;17 40,950;30;3;1;338;58;57;;58;319;OTB Otter trawl bottom;TV3 BOTTOM TRAWL FOR COD 930 MESH;;;;;;"Thyborön 100""";4;75;;Valid;OXBH.2016.18;5546.84;1741.92;55.781;17.699;81.29978477;266.7315773;42.476928;208;38.82285677;127.3715773;492.1259843;0.453652799;1;1
2015;2015-11-23 10:00;OXBH;DANA;;Research vessel;6;BITS;28;Sub-28 (Östersjön-Öster om Gotland);4 363;57 08,160;18 47,520;57 09,660;18 48,140;30;3;2;13;41;41;;41;316;OTB Otter trawl bottom;TV 112 COD TRAWL;;;;;;"Thyborön 100""";4;75;;Valid;OXBH.2015.21;5708.16;1847.52;57.136;18.792;81.29978477;266.7315773;42.476928;208;38.82285677;127.3715773;492.1259843;0.453652799;1;1
2015;2015-03-03 13:30;OXBH;DANA;;Research vessel;6;BITS;27;Sub-27 (Östersjön-Väster om Gotland);4 463;57 45,800;18 07,300;57 47,300;18 07,300;30;3;2;;102;106;;104;319;OTB Otter trawl bottom;TV3 BOTTOM TRAWL FOR COD 930 MESH;;;;;;"Thyborön 100""";4;75;;No oxygen;OXBH.2015.57;5745.8;1807.3;57.763;18.122;81.29978477;266.7315773;42.476928;208;38.82285677;127.3715773;492.1259843;0.453652799;1;1
2016;2016-02-28 08:44;OXBH;DANA;;Research vessel;6;BITS;25;Sub-25 (Östersjön-Södra centrala V);4 161;56 28,920;16 57,500;56 27,470;16 58,090;30;3;2;167;72;70;;71;319;OTB Otter trawl bottom;TV3 BOTTOM TRAWL FOR COD 930 MESH;;;;;;"Thyborön 100""";4;75;;Valid;OXBH.2016.75;5628.92;1657.5;56.482;16.958;81.29978477;266.7315773;42.476928;208;38.82285677;127.3715773;492.1259843;0.453652799;1;1
2016;2016-11-22 10:30;OXBH;DANA;;Research vessel;6;BITS;28;Sub-28 (Östersjön-Öster om Gotland);4 364;57 15,350;19 04,300;57 16,600;19 05,700;30;3;2;;80;83;;82;319;OTB Otter trawl bottom;TV3 BOTTOM TRAWL FOR COD 930 MESH;;;;;;"Thyborön 100""";4;75;;No oxygen;OXBH.2016.23;5715.35;1904.3;57.256;19.072;81.29978477;266.7315773;42.476928;208;38.82285677;127.3715773;492.1259843;0.453652799;1;1
2016;2016-10-06 02:07;OXBH;DANA;;Research vessel;2;Acoustics (BIAS, Hersur) ;27;Sub-27 (Östersjön-Väster om Gotland);4 463;57 44,838;18 07,510;57 46,358;18 08,990;32;3;2;26;113;115;;113;321;OTM Otter trawl midwater;Fotö oneboat pelag floatstock.14;;;;;;Tyborön VF 15;4;108;20;Valid;OXBH.2016.23;5744.838;1807.51;57.747;18.125;0;0;0;;0;0;;0;;0.9
2016;2016-07-18 00:00;SFB-9664;;SN - 30;Swedish vessel;80;Coastal Laboratory - DCF;30;Sub-30 (Bottenhavet);5 162;61 23,000;17 20,000;;;1 200;;;;;;;;721;GNS Gillnet set;GNS GILL NET FOR HERRING;0;;;;;;;;;Valid;SFB-9664.2016.999;6123;1720;61.383;17.333;0;0;0;;0;0;;0;;
2015;2015-09-29 00:00;SFC-2755;;SN - 8;Swedish vessel;80;Coastal Laboratory - DCF;30;Sub-30 (Bottenhavet);5 162;61 20,000;17 10,000;;;40;;;;;;;;314;OTB Otter trawl bottom;OTB BOTTOM TRAWL FOR HERRING;0;;;;;;;;;Valid;SFC-2755.2015.999;6120;1710;61.333;17.167;0;0;0;;0;0;;0;;
2016;2016-06-14 00:00;SFB-2741;ATHENA;HA - 26;Swedish vessel;80;Coastal Laboratory - DCF;31;Sub-31 (Bottenviken);6 067;65 45,000;22 45,000;;;780;;;;;;;;721;GNS Gillnet set;GNS GILL NET FOR HERRING;0;;;;;;;;;Valid;SFB-2741.2016.999;6545;2245;65.75;22.75;0;0;0;;0;0;;0;;
2015;2015-07-20 00:00;SFB-9664;;SN - 30;Swedish vessel;80;Coastal Laboratory - DCF;30;Sub-30 (Bottenhavet);5 162;61 20,000;17 10,000;;;600;;;;;;;;721;GNS Gillnet set;GNS GILL NET FOR HERRING;0;;;;;;;;;Valid;SFB-9664.2015.;6120;1710;61.333;17.167;0;0;0;;0;0;;0;;
2015;2015-10-09 07:44;OXBH;DANA;;Research vessel;2;Acoustics (BIAS, Hersur) ;25;Sub-25 (Östersjön-Södra centrala V);4 062;55 57,639;17 12,818;55 56,481;17 09,073;45;3;2;24;43;46;;45;321;OTM Otter trawl midwater;FOTÖ ONEB PEL.TR 3.2M 6MM 2010;;;;;;Tyborön VF 15;4;108;20;Valid;OXBH.2015.86;5557.639;1712.818;55.961;17.214;0;0;0;;0;0;;0;;0.9
2015;2015-11-21 07:10;OXBH;DANA;;Research vessel;6;BITS;25;Sub-25 (Östersjön-Södra centrala V);4 162;56 04,180;17 22,170;56 04,980;17 24,430;30;3;2;58;41;42;;42;316;OTB Otter trawl bottom;TV 112 COD TRAWL;;;;;;"Thyborön 100""";4;75;;Valid;OXBH.2015.8;5604.18;1722.17;56.07;17.37;81.29978477;266.7315773;42.476928;208;38.82285677;127.3715773;492.1259843;0.453652799;1;1
2016;2016-02-21 14:40;OXBH;DANA;;Research vessel;6;BITS;25;Sub-25 (Östersjön-Södra centrala V);4 059;55 42,120;14 22,070;55 42,470;14 24,620;30;3;1;76;36;38;;38;319;OTB Otter trawl bottom;TV3 BOTTOM TRAWL FOR COD 930 MESH;;;;;;"Thyborön 100""";4;75;;Valid;OXBH.2016.8;5542.12;1422.07;55.702;14.368;81.29978477;266.7315773;42.476928;208;38.82285677;127.3715773;492.1259843;0.453652799;1;1
2015;2015-11-24 13:06;OXBH;DANA;;Research vessel;6;BITS;28;Sub-28 (Östersjön-Öster om Gotland);4 464;57 41,440;19 05,290;57 40,160;19 03,850;30;3;2;211;35;36;;36;316;OTB Otter trawl bottom;TV 112 COD TRAWL;;;;;;"Thyborön 100""";4;75;;Valid;OXBH.2015.32;5741.44;1905.29;57.691;19.088;81.29978477;266.7315773;42.476928;208;38.82285677;127.3715773;492.1259843;0.453652799;1;1
2016;2016-10-07 10:45;OXBH;DANA;;Research vessel;2;Acoustics (BIAS, Hersur) ;27;Sub-27 (Östersjön-Väster om Gotland);4 663;58 36,870;18 13,550;58 36,120;18 18,360;51;3;3;108;332;202;467;315;321;OTM Otter trawl midwater;Fotö oneboat pelag floatstock.14;;;;;;Tyborön VF 15;4;108;;Valid;OXBH.2016.35;5836.87;1813.55;58.615;18.226;0;0;0;;0;0;;0;;1
2016;2016-10-09 04:58;OXBH;DANA;;Research vessel;2;Acoustics (BIAS, Hersur) ;29S;Sub-29S (Skärgårdshavet, S 59.30);4 664;58 38,597;19 19,597;58 42,151;19 22,242;72;3;4;56;125;145;;150;321;OTM Otter trawl midwater;Fotö oneboat pelag floatstock.14;;;;;;Tyborön VF 15;4;108;;Valid;OXBH.2016.49;5838.597;1919.597;58.643;19.327;0;0;0;;0;0;;0;;0.9
2016;2016-10-13 02:22;OXBH;DANA;;Research vessel;2;Acoustics (BIAS, Hersur) ;25;Sub-25 (Östersjön-Södra centrala V);4 062;55 46,247;17 39,986;55 48,514;17 39,178;43;3;2;348;54;55;;54;321;OTM Otter trawl midwater;Fotö oneboat pelag floatstock.14;;;;;;Tyborön VF 15;4;108;;Valid;OXBH.2016.86;5546.247;1739.986;55.771;17.666;0;0;0;;0;0;;0;;0.9
2015;2015-10-10 13:22;OXBH;DANA;;Research vessel;2;Acoustics (BIAS, Hersur) ;25;Sub-25 (Östersjön-Södra centrala V);3 959;55 26,766;14 32,125;55 24,476;14 30,208;46;3;3;205;59;56;;58;321;OTM Otter trawl midwater;FOTÖ ONEB PEL.TR 3.2M 6MM 2010;;;;;;Tyborön VF 15;4;108;;Valid;OXBH.2015.98;5526.766;1432.125;55.446;14.535;0;0;0;;0;0;;0;;0.9
2015;2015-10-07 23:35;OXBH;DANA;;Research vessel;2;Acoustics (BIAS, Hersur) ;28;Sub-28 (Östersjön-Öster om Gotland);4 363;57 03,475;18 52,419;57 02,713;18 54,257;20;4;1;128;88;100;;94;321;OTM Otter trawl midwater;FOTÖ ONEB PEL.TR 3.2M 6MM 2010;;;;;;Tyborön VF 15;4;108;15;Valid;OXBH.2015.72;5703.475;1852.419;57.058;18.874;0;0;0;;0;0;;0;;0.8
2016;2016-10-04 14:49;OXBH;DANA;;Research vessel;2;Acoustics (BIAS, Hersur) ;25;Sub-25 (Östersjön-Södra centrala V);4 061;55 54,622;16 09,424;55 54,599;16 12,673;32;4;2;92.9;51;53;;51;321;OTM Otter trawl midwater;Fotö oneboat pelag floatstock.14;;;;;;Tyborön VF 15;4;108;;Valid;OXBH.2016.13;5554.622;1609.424;55.91;16.157;0;0;0;;0;0;;0;;0.9
2016;2016-10-04 19:03;OXBH;DANA;;Research vessel;2;Acoustics (BIAS, Hersur) ;25;Sub-25 (Östersjön-Södra centrala V);4 161;56 05,327;16 28,856;56 06,243;16 32,232;44;3;2;65;49;52;;50;321;OTM Otter trawl midwater;Fotö oneboat pelag floatstock.14;;;;;;Tyborön VF 15;4;108;;Valid;OXBH.2016.15;5605.327;1628.856;56.089;16.481;0;0;0;;0;0;;0;;1
2015;2015-11-23 11:00;OXBH;DANA;;Research vessel;6;BITS;28;Sub-28 (Östersjön-Öster om Gotland);4 363;57 06,500;18 57,300;57 07,800;18 58,700;30;3;2;;83;87;;85;316;OTB Otter trawl bottom;TV 112 COD TRAWL;;;;;;"Thyborön 100""";4;75;;No oxygen;OXBH.2015.23;5706.5;1857.3;57.108;18.955;81.29978477;266.7315773;42.476928;208;38.82285677;127.3715773;492.1259843;0.453652799;1;1
2016;2016-10-13 17:40;OXBH;DANA;;Research vessel;2;Acoustics (BIAS, Hersur) ;25;Sub-25 (Östersjön-Södra centrala V);4 060;55 32,437;15 44,631;55 30,584;15 46,065;44;3;2;157;76;82;;78;321;OTM Otter trawl midwater;Fotö oneboat pelag floatstock.14;;;;;;Tyborön VF 15;4;108;;Valid;OXBH.2016.92;5532.437;1544.631;55.541;15.744;0;0;0;;0;0;;0;;1
2015;2015-11-24 07:12;OXBH;DANA;;Research vessel;6;BITS;28;Sub-28 (Östersjön-Öster om Gotland);4 364;57 19,410;19 06,860;57 20,610;19 08,530;30;3;2;37;77;78;;78;316;OTB Otter trawl bottom;TV 112 COD TRAWL;;;;;;"Thyborön 100""";4;75;;Valid;OXBH.2015.28;5719.41;1906.86;57.324;19.114;81.29978477;266.7315773;42.476928;208;38.82285677;127.3715773;492.1259843;0.453652799;1;1
2016;2016-02-25 07:15;OXBH;DANA;;Research vessel;6;BITS;28;Sub-28 (Östersjön-Öster om Gotland);4 363;57 09,140;18 47,900;57 10,600;18 48,500;30;3;2;12;41;41;;41;319;OTB Otter trawl bottom;TV3 BOTTOM TRAWL FOR COD 930 MESH;;;;;;"Thyborön 100""";4;75;;Valid;OXBH.2016.41;5709.14;1847.9;57.152;18.798;81.29978477;266.7315773;42.476928;208;38.82285677;127.3715773;492.1259843;0.453652799;1;1
2016;2016-10-08 03:52;OXBH;DANA;;Research vessel;2;Acoustics (BIAS, Hersur) ;29S;Sub-29S (Skärgårdshavet, S 59.30);4 764;59 13,462;19 47,705;59 13,535;19 43,739;38;3;2;272;80;105;;87;321;OTM Otter trawl midwater;Fotö oneboat pelag floatstock.14;;;;;;Tyborön VF 15;4;108;;Valid;OXBH.2016.41;5913.462;1947.705;59.224;19.795;0;0;0;;0;0;;0;;0.9
2016;2016-03-02 09:09;OXBH;DANA;;Research vessel;6;BITS;25;Sub-25 (Östersjön-Södra centrala V);4 060;55 44,710;15 21,700;55 43,790;15 19,620;30;3;1;232;60;60;;60;319;OTB Otter trawl bottom;TV3 BOTTOM TRAWL FOR COD 930 MESH;;;;;;"Thyborön 100""";4;75;;Valid;OXBH.2016.97;5544.71;1521.7;55.745;15.362;81.29978477;266.7315773;42.476928;208;38.82285677;127.3715773;492.1259843;0.453652799;1;1
2015;2015-03-01 09:53;OXBH;DANA;;Research vessel;6;BITS;28;Sub-28 (Östersjön-Öster om Gotland);4 364;57 19,710;19 05,000;57 18,430;19 03,550;30;3;2;211;67;68;;67;319;OTB Otter trawl bottom;TV3 BOTTOM TRAWL FOR COD 930 MESH;;;;;;"Thyborön 100""";4;75;;Valid;OXBH.2015.34;5719.71;1905;57.329;19.083;81.29978477;266.7315773;42.476928;208;38.82285677;127.3715773;492.1259843;0.453652799;1;1
2015;2015-10-10 08:33;OXBH;DANA;;Research vessel;2;Acoustics (BIAS, Hersur) ;25;Sub-25 (Östersjön-Södra centrala V);3 960;55 07,702;15 20,357;55 09,322;15 21,654;31;4;2;25;68;64;;66;321;OTM Otter trawl midwater;FOTÖ ONEB PEL.TR 3.2M 6MM 2010;;;;;;Tyborön VF 15;4;108;;Valid;OXBH.2015.96;5507.702;1520.357;55.128;15.339;0;0;0;;0;0;;0;;0.8
2015;2015-03-04 06:30;OXBH;DANA;;Research vessel;6;BITS;27;Sub-27 (Östersjön-Väster om Gotland);4 362;57 03,600;17 52,100;57 02,150;17 52,500;30;3;2;;83;84;;84;319;OTB Otter trawl bottom;TV3 BOTTOM TRAWL FOR COD 930 MESH;;;;;;"Thyborön 100""";4;75;;No oxygen;OXBH.2015.61;5703.6;1752.1;57.06;17.868;81.29978477;266.7315773;42.476928;208;38.82285677;127.3715773;492.1259843;0.453652799;1;1
2015;2015-03-08 10:25;OXBH;DANA;;Research vessel;6;BITS;25;Sub-25 (Östersjön-Södra centrala V);4 059;55 42,170;14 22,380;55 42,530;14 24,990;30;3;2;77;37;39;;38;319;OTB Otter trawl bottom;TV3 BOTTOM TRAWL FOR COD 930 MESH;;;;;;"Thyborön 100""";4;75;;Valid;OXBH.2015.96;5542.17;1422.38;55.703;14.373;81.29978477;266.7315773;42.476928;208;38.82285677;127.3715773;492.1259843;0.453652799;1;1
2015;2015-10-09 03:03;OXBH;DANA;;Research vessel;2;Acoustics (BIAS, Hersur) ;25;Sub-25 (Östersjön-Södra centrala V);4 162;56 26,627;17 16,687;56 27,532;17 13,422;45;3;3;316;52;52;;54;321;OTM Otter trawl midwater;FOTÖ ONEB PEL.TR 3.2M 6MM 2010;;;;;;Tyborön VF 15;4;108;15;Valid;OXBH.2015.84;5626.627;1716.687;56.444;17.278;0;0;0;;0;0;;0;;0.9
2015;2015-10-02 08:31;OXBH;DANA;;Research vessel;2;Acoustics (BIAS, Hersur) ;27;Sub-27 (Östersjön-Väster om Gotland);4 261;56 36,120;16 55,130;56 38,640;16 57,630;47;4;3;29;71;62;;66;321;OTM Otter trawl midwater;FOTÖ ONEB PEL.TR 3.2M 6MM 2010;;;;;;Tyborön VF 15;4;108;;Valid;OXBH.2015.16;5636.12;1655.13;56.602;16.919;0;0;0;;0;0;;0;;0.8
2015;2015-02-26 09:00;OXBH;DANA;;Research vessel;6;BITS;25;Sub-25 (Östersjön-Södra centrala V);4 059;55 38,350;14 37,370;55 39,280;14 39,410;30;3;1;51;60;58;;60;319;OTB Otter trawl bottom;TV3 BOTTOM TRAWL FOR COD 930 MESH;;;;;;"Thyborön 100""";4;75;;Valid;OXBH.2015.4;5538.35;1437.37;55.639;14.623;81.29978477;266.7315773;42.476928;208;38.82285677;127.3715773;492.1259843;0.453652799;1;1
2016;2016-02-24 09:01;OXBH;DANA;;Research vessel;6;BITS;26;Sub-26 (Östersjön-Södra centrala Ö);4 163;56 01,140;18 54,290;56 02,240;18 56,100;30;3;1;42;121;122;;122;319;OTB Otter trawl bottom;TV3 BOTTOM TRAWL FOR COD 930 MESH;;;;;;"Thyborön 100""";4;75;;Valid;OXBH.2016.31;5601.14;1854.29;56.019;18.905;81.29978477;266.7315773;42.476928;208;38.82285677;127.3715773;492.1259843;0.453652799;1;1
2016;2016-10-09 10:49;OXBH;DANA;;Research vessel;2;Acoustics (BIAS, Hersur) ;28;Sub-28 (Östersjön-Öster om Gotland);4 564;58 20,720;19 45,000;58 19,300;19 47,920;40;3;2;133;106;120;;114;321;OTM Otter trawl midwater;Fotö oneboat pelag floatstock.14;;;;;;Tyborön VF 15;4;108;;Valid;OXBH.2016.51;5820.72;1945;58.345;19.75;0;0;0;;0;0;;0;;1
2015;2015-03-07 06:33;OXBH;DANA;;Research vessel;6;BITS;25;Sub-25 (Östersjön-Södra centrala V);4 061;55 48,360;16 31,410;55 47,690;16 29,020;30;3;2;244;56;57;;56;319;OTB Otter trawl bottom;TV3 BOTTOM TRAWL FOR COD 930 MESH;;;;;;"Thyborön 100""";4;75;;Valid;OXBH.2015.85;5548.36;1631.41;55.806;16.524;81.29978477;266.7315773;42.476928;208;38.82285677;127.3715773;492.1259843;0.453652799;1;1
2016;2016-10-08 23:21;OXBH;DANA;;Research vessel;2;Acoustics (BIAS, Hersur) ;29S;Sub-29S (Skärgårdshavet, S 59.30);4 664;58 51,370;19 42,970;58 53,430;19 38,610;60;3;3;315;146;129;;138;321;OTM Otter trawl midwater;Fotö oneboat pelag floatstock.14;;;;;;Tyborön VF 15;4;108;;Valid;OXBH.2016.47;5851.37;1942.97;58.856;19.716;0;0;0;;0;0;;0;;1
2015;2015-03-05 11:37;OXBH;DANA;;Research vessel;6;BITS;25;Sub-25 (Östersjön-Södra centrala V);4 161;56 27,110;16 46,670;56 25,720;16 45,500;30;3;2;205;61;60;;61;319;OTB Otter trawl bottom;TV3 BOTTOM TRAWL FOR COD 930 MESH;;;;;;"Thyborön 100""";4;75;;Additional valid stations not used for index calculations;OXBH.2015.75;5627.11;1646.67;56.452;16.778;81.29978477;266.7315773;42.476928;208;38.82285677;127.3715773;492.1259843;0.453652799;1;1
2016;2016-02-27 07:36;OXBH;DANA;;Research vessel;6;BITS;27;Sub-27 (Östersjön-Väster om Gotland);4 362;57 29,880;17 34,400;57 28,450;17 33,330;30;3;2;203;64;76;;72;319;OTB Otter trawl bottom;TV3 BOTTOM TRAWL FOR COD 930 MESH;;;;;;"Thyborön 100""";4;75;;Valid;OXBH.2016.65;5729.88;1734.4;57.498;17.573;81.29978477;266.7315773;42.476928;208;38.82285677;127.3715773;492.1259843;0.453652799;1;1
2016;2016-10-10 19:32;OXBH;DANA;;Research vessel;2;Acoustics (BIAS, Hersur) ;28;Sub-28 (Östersjön-Öster om Gotland);4 363;57 14,250;18 56,960;57 12,860;18 58,120;30;3;2;156;60;66;;64;321;OTM Otter trawl midwater;FOTÖ ONEB PEL.TR 3.2M 6MM 2010;;;;;;Tyborön VF 15;4;108;;Valid;OXBH.2016.63;5714.25;1856.96;57.238;18.949;0;0;0;;0;0;;0;;0.9
2016;2016-10-04 10:22;OXBH;DANA;;Research vessel;2;Acoustics (BIAS, Hersur) ;25;Sub-25 (Östersjön-Södra centrala V);4 060;55 46,213;15 47,612;55 45,164;15 49,406;30;3;2;135;54;58;;55;321;OTM Otter trawl midwater;Fotö oneboat pelag floatstock.14;;;;;;Tyborön VF 15;4;108;;Valid;OXBH.2016.11;5546.213;1547.612;55.77;15.794;0;0;0;;0;0;;0;;0.9
2016;2016-02-22 09:20;OXBH;DANA;;Research vessel;6;BITS;25;Sub-25 (Östersjön-Södra centrala V);4 060;55 48,330;15 17,300;55 49,300;15 19,300;30;3;2;50;55;54;;55;319;OTB Otter trawl bottom;TV3 BOTTOM TRAWL FOR COD 930 MESH;;;;;;"Thyborön 100""";4;75;;Valid;OXBH.2016.12;5548.33;1517.3;55.806;15.288;81.29978477;266.7315773;42.476928;208;38.82285677;127.3715773;492.1259843;0.453652799;1;1
2016;2016-11-22 12:00;OXBH;DANA;;Research vessel;6;BITS;28;Sub-28 (Östersjön-Öster om Gotland);4 364;57 21,000;19 09,000;57 22,100;19 11,200;30;3;2;;80;85;;83;319;OTB Otter trawl bottom;TV3 BOTTOM TRAWL FOR COD 930 MESH;;;;;;"Thyborön 100""";4;75;;No oxygen;OXBH.2016.25;5721;1909;57.35;19.15;81.29978477;266.7315773;42.476928;208;38.82285677;127.3715773;492.1259843;0.453652799;1;1
2015;2015-10-04 19:57;OXBH;DANA;;Research vessel;2;Acoustics (BIAS, Hersur) ;27;Sub-27 (Östersjön-Väster om Gotland);4 663;58 34,776;18 11,700;58 35,423;18 15,444;31;4;2;72;141;225;;273;321;OTM Otter trawl midwater;FOTÖ ONEB PEL.TR 3.2M 6MM 2010;;;;;;Tyborön VF 15;4;108;;Valid;OXBH.2015.42;5834.776;1811.7;58.58;18.195;0;0;0;;0;0;;0;;0.8
2015;2015-10-08 22:52;OXBH;DANA;;Research vessel;2;Acoustics (BIAS, Hersur) ;25;Sub-25 (Östersjön-Södra centrala V);4 162;56 21,464;17 48,170;56 19,955;17 42,742;50;4;3;243;50;47;;49;321;OTM Otter trawl midwater;FOTÖ ONEB PEL.TR 3.2M 6MM 2010;;;;;;Tyborön VF 15;4;108;15;Valid;OXBH.2015.82;5621.464;1748.17;56.358;17.803;0;0;0;;0;0;;0;;0.7
2015;2015-02-28 06:24;OXBH;DANA;;Research vessel;6;BITS;26;Sub-26 (Östersjön-Södra centrala Ö);4 163;56 23,640;18 29,380;56 22,380;18 27,900;30;3;2;212;36;38;;38;319;OTB Otter trawl bottom;TV3 BOTTOM TRAWL FOR COD 930 MESH;;;;;;"Thyborön 100""";4;75;;Valid;OXBH.2015.20;5623.64;1829.38;56.394;18.49;81.29978477;266.7315773;42.476928;208;38.82285677;127.3715773;492.1259843;0.453652799;1;1
2015;2015-03-02 15:15;OXBH;DANA;;Research vessel;6;BITS;28;Sub-28 (Östersjön-Öster om Gotland);4 564;58 02,850;19 28,100;58 02,200;19 30,300;30;3;2;;86;91;;89;319;OTB Otter trawl bottom;TV3 BOTTOM TRAWL FOR COD 930 MESH;;;;;;"Thyborön 100""";4;75;;No oxygen;OXBH.2015.51;5802.85;1928.1;58.048;19.468;81.29978477;266.7315773;42.476928;208;38.82285677;127.3715773;492.1259843;0.453652799;1;1
2015;2015-06-09 00:00;SFC-2455;SOFIA;GE - 5;Swedish vessel;80;Coastal Laboratory - DCF;30;Sub-30 (Bottenhavet);5 062;60 44,000;17 19,000;;;540;;;;;;;;721;GNS Gillnet set;GNS GILL NET FOR HERRING;0;;;;;;;;;Valid;SFC-2455.2015.;6044;1719;60.733;17.317;0;0;0;;0;0;;0;;
2016;2016-09-30 00:00;SFC-9622;FILIP;UÅ - 62;Swedish vessel;80;Coastal Laboratory - DCF;31;Sub-31 (Bottenviken);5 665;63 38,000;20 25,000;;;300;;;;;;;;721;GNS Gillnet set;GNS GILL NET FOR HERRING;0;;;;;;;;;Valid;SFC-9622.2016.999;6338;2025;63.633;20.417;0;0;0;;0;0;;0;;
2016;2016-10-04 08:45;OXBH;DANA;;Research vessel;2;Acoustics (BIAS, Hersur) ;25;Sub-25 (Östersjön-Södra centrala V);4 060;55 47,696;15 50,393;;;5;;0;;57;57;;57;321;OTM Otter trawl midwater;Fotö oneboat pelag floatstock.14;;;;;;Tyborön VF 15;4;108;;Invalid;OXBH.2016.10;5547.696;1550.393;55.795;15.84;0;0;0;;0;0;;0;;
2015;2015-11-22 10:03;OXBH;DANA;;Research vessel;6;BITS;26;Sub-26 (Östersjön-Södra centrala Ö);4 163;56 16,780;18 31,580;56 18,050;18 32,980;30;3;1;31;81;84;;82;316;OTB Otter trawl bottom;TV 112 COD TRAWL;;;;;;"Thyborön 100""";4;75;;Valid;OXBH.2015.16;5616.78;1831.58;56.28;18.526;81.29978477;266.7315773;42.476928;208;38.82285677;127.3715773;492.1259843;0.453652799;1;1
2016;2016-10-06 07:21;OXBH;DANA;;Research vessel;2;Acoustics (BIAS, Hersur) ;27;Sub-27 (Östersjön-Väster om Gotland);4 462;57 54,817;17 45,419;57 54,248;17 40,398;50;3;3;257;168;179;;164;321;OTM Otter trawl midwater;Fotö oneboat pelag floatstock.14;;;;;;Tyborön VF 15;4;108;;Valid;OXBH.2016.25;5754.817;1745.419;57.914;17.757;0;0;0;;0;0;;0;;0.9
2016;2016-10-07 16:32;OXBH;DANA;;Research vessel;2;Acoustics (BIAS, Hersur) ;27;Sub-27 (Östersjön-Väster om Gotland);4 663;58 51,464;18 46,734;58 52,080;18 42,725;42;3;2;286;93;66;;81;321;OTM Otter trawl midwater;Fotö oneboat pelag floatstock.14;;;;;;Tyborön VF 15;4;108;;Valid;OXBH.2016.37;5851.464;1846.734;58.858;18.779;0;0;0;;0;0;;0;;1
2015;2015-11-27 10:00;OXBH;DANA;;Research vessel;6;BITS;27;Sub-27 (Östersjön-Väster om Gotland);4 261;56 34,000;16 51,000;56 32,550;16 50,250;30;3;2;;63;64;;64;316;OTB Otter trawl bottom;TV 112 COD TRAWL;;;;;;"Thyborön 100""";4;75;;No oxygen;OXBH.2015.59;5634;1651;56.567;16.85;81.29978477;266.7315773;42.476928;208;38.82285677;127.3715773;492.1259843;0.453652799;1;1
2016;2016-10-11 22:49;OXBH;DANA;;Research vessel;2;Acoustics (BIAS, Hersur) ;25;Sub-25 (Östersjön-Södra centrala V);4 162;56 21,730;17 48,680;56 24,740;17 47,620;60;3;3;349;50;51;;51;321;OTM Otter trawl midwater;Fotö oneboat pelag floatstock.14;;;;;;Tyborön VF 15;4;108;;Valid;OXBH.2016.73;5621.73;1748.68;56.362;17.811;0;0;0;;0;0;;0;;1
2016;2016-02-26 14:30;OXBH;DANA;;Research vessel;6;BITS;27;Sub-27 (Östersjön-Väster om Gotland);4 463;57 46,000;18 07,000;57 47,500;18 07,000;30;3;2;;99;107;;103;319;OTB Otter trawl bottom;TV3 BOTTOM TRAWL FOR COD 930 MESH;;;;;;"Thyborön 100""";4;75;;No oxygen;OXBH.2016.61;5746;1807;57.767;18.117;81.29978477;266.7315773;42.476928;208;38.82285677;127.3715773;492.1259843;0.453652799;1;1
2016;2016-10-09 16:55;OXBH;DANA;;Research vessel;2;Acoustics (BIAS, Hersur) ;28;Sub-28 (Östersjön-Öster om Gotland);4 564;58 03,860;19 40,384;58 06,958;19 43,215;66;3;4;26;168;166;;167;321;OTM Otter trawl midwater;Fotö oneboat pelag floatstock.14;;;;;;Tyborön VF 15;4;108;;Valid;OXBH.2016.53;5803.86;1940.384;58.064;19.673;0;0;0;;0;0;;0;;0.9
2015;2015-02-26 12:26;OXBH;DANA;;Research vessel;6;BITS;25;Sub-25 (Östersjön-Södra centrala V);4 059;55 40,230;14 29,750;55 41,130;14 27,490;30;3;2;302;50;49;;49;319;OTB Otter trawl bottom;TV3 BOTTOM TRAWL FOR COD 930 MESH;;;;;;"Thyborön 100""";4;75;;Valid;OXBH.2015.6;5540.23;1429.75;55.671;14.496;81.29978477;266.7315773;42.476928;208;38.82285677;127.3715773;492.1259843;0.453652799;1;1
2016;2016-10-07 05:00;OXBH;DANA;;Research vessel;2;Acoustics (BIAS, Hersur) ;27;Sub-27 (Östersjön-Väster om Gotland);4 563;58 19,959;18 41,134;58 21,628;18 36,616;60;3;3;305;154;150;;149;321;OTM Otter trawl midwater;Fotö oneboat pelag floatstock.14;;;;;;Tyborön VF 15;4;108;;Valid;OXBH.2016.33;5819.959;1841.134;58.333;18.686;0;0;0;;0;0;;0;;1
2016;2016-02-25 06:15;OXBH;DANA;;Research vessel;6;BITS;28;Sub-28 (Östersjön-Öster om Gotland);4 363;57 00,300;18 48,400;57 01,700;18 49,200;30;3;2;;72;74;;73;319;OTB Otter trawl bottom;TV3 BOTTOM TRAWL FOR COD 930 MESH;;;;;;"Thyborön 100""";4;75;;No oxygen;OXBH.2016.40;5700.3;1848.4;57.005;18.807;81.29978477;266.7315773;42.476928;208;38.82285677;127.3715773;492.1259843;0.453652799;1;1
2016;2016-11-26 09:45;OXBH;DANA;;Research vessel;6;BITS;25;Sub-25 (Östersjön-Södra centrala V);4 161;56 27,160;16 46,740;56 25,800;16 45,590;30;3;2;205;60;60;;61;319;OTB Otter trawl bottom;TV3 BOTTOM TRAWL FOR COD 930 MESH;;;;;;"Thyborön 100""";4;75;;Additional valid stations not used for index calculations;OXBH.2016.56;5627.16;1646.74;56.453;16.779;81.29978477;266.7315773;42.476928;208;38.82285677;127.3715773;492.1259843;0.453652799;1;1
2015;2015-02-26 13:59;OXBH;DANA;;Research vessel;6;BITS;25;Sub-25 (Östersjön-Södra centrala V);4 059;55 42,450;14 22,790;55 42,850;14 25,350;30;3;1;75;37;38;;37;319;OTB Otter trawl bottom;TV3 BOTTOM TRAWL FOR COD 930 MESH;;;;;;"Thyborön 100""";4;75;;Valid;OXBH.2015.7;5542.45;1422.79;55.708;14.38;81.29978477;266.7315773;42.476928;208;38.82285677;127.3715773;492.1259843;0.453652799;1;1
2016;2016-02-27 11:27;OXBH;DANA;;Research vessel;6;BITS;27;Sub-27 (Östersjön-Väster om Gotland);4 362;57 07,580;17 17,430;57 06,090;17 17,090;30;3;2;187;68;73;;73;319;OTB Otter trawl bottom;TV3 BOTTOM TRAWL FOR COD 930 MESH;;;;;;"Thyborön 100""";4;75;;Valid;OXBH.2016.67;5707.58;1717.43;57.126;17.291;81.29978477;266.7315773;42.476928;208;38.82285677;127.3715773;492.1259843;0.453652799;1;1
2016;2016-02-28 14:11;OXBH;DANA;;Research vessel;6;BITS;26;Sub-26 (Östersjön-Södra centrala Ö);4 163;56 24,430;18 29,390;56 23,140;18 28,060;30;3;1;210;32;36;;34;319;OTB Otter trawl bottom;TV3 BOTTOM TRAWL FOR COD 930 MESH;;;;;;"Thyborön 100""";4;75;;Valid;OXBH.2016.76;5624.43;1829.39;56.407;18.49;81.29978477;266.7315773;42.476928;208;38.82285677;127.3715773;492.1259843;0.453652799;1;1
2015;2015-02-28 14:50;OXBH;DANA;;Research vessel;6;BITS;26;Sub-26 (Östersjön-Södra centrala Ö);4 163;56 12,360;18 21,720;56 10,940;18 20,780;30;3;2;200;68;71;;69;319;OTB Otter trawl bottom;TV3 BOTTOM TRAWL FOR COD 930 MESH;;;;;;"Thyborön 100""";4;75;;Valid;OXBH.2015.28;5612.36;1821.72;56.206;18.362;81.29978477;266.7315773;42.476928;208;38.82285677;127.3715773;492.1259843;0.453652799;1;1
2015;2015-11-20 09:19;OXBH;DANA;;Research vessel;6;BITS;25;Sub-25 (Östersjön-Södra centrala V);4 059;55 41,050;14 30,150;55 41,970;14 32,230;30;3;1;52;49;45;;48;316;OTB Otter trawl bottom;TV 112 COD TRAWL;;;;;;"Thyborön 100""";4;75;;Valid;OXBH.2015.4;5541.05;1430.15;55.684;14.503;81.29978477;266.7315773;42.476928;208;38.82285677;127.3715773;492.1259843;0.453652799;1;1
2015;2015-11-25 12:30;OXBH;DANA;;Research vessel;6;BITS;27;Sub-27 (Östersjön-Väster om Gotland);4 463;57 46,000;18 07,000;57 47,500;18 07,000;30;3;2;;102;105;;104;316;OTB Otter trawl bottom;TV 112 COD TRAWL;;;;;;"Thyborön 100""";4;75;;No oxygen;OXBH.2015.43;5746;1807;57.767;18.117;81.29978477;266.7315773;42.476928;208;38.82285677;127.3715773;492.1259843;0.453652799;1;1
2015;2015-10-05 17:35;OXBH;DANA;;Research vessel;2;Acoustics (BIAS, Hersur) ;29S;Sub-29S (Skärgårdshavet, S 59.30);4 764;59 05,024;19 14,349;59 04,585;19 10,669;30;4;2;257;72;68;;72;321;OTM Otter trawl midwater;FOTÖ ONEB PEL.TR 3.2M 6MM 2010;;;;;;Tyborön VF 15;4;108;;Valid;OXBH.2015.50;5905.024;1914.349;59.084;19.239;0;0;0;;0;0;;0;;0.8
2016;2016-02-25 11:16;OXBH;DANA;;Research vessel;6;BITS;28;Sub-28 (Östersjön-Öster om Gotland);4 364;57 19,400;19 04,630;57 18,090;19 03,300;30;3;2;209;67;69;;68;319;OTB Otter trawl bottom;TV3 BOTTOM TRAWL FOR COD 930 MESH;;;;;;"Thyborön 100""";4;75;;Valid;OXBH.2016.46;5719.4;1904.63;57.323;19.077;81.29978477;266.7315773;42.476928;208;38.82285677;127.3715773;492.1259843;0.453652799;1;1
2015;2015-02-26 06:32;OXBH;DANA;;Research vessel;6;BITS;25;Sub-25 (Östersjön-Södra centrala V);3 959;55 28,900;14 36,280;55 29,630;14 38,590;30;3;1;61;60;61;;60;319;OTB Otter trawl bottom;TV3 BOTTOM TRAWL FOR COD 930 MESH;;35;;;;"Thyborön 100""";4;75;;Valid;OXBH.2015.2;5528.9;1436.28;55.482;14.605;81.29978477;266.7315773;42.476928;208;38.82285677;127.3715773;492.1259843;0.453652799;1;1
2016;2016-03-01 07:43;OXBH;DANA;;Research vessel;6;BITS;25;Sub-25 (Östersjön-Södra centrala V);4 061;55 51,850;16 28,640;55 51,930;16 26,020;30;3;1;273;54;52;;53;319;OTB Otter trawl bottom;TV3 BOTTOM TRAWL FOR COD 930 MESH;;;;;;"Thyborön 100""";4;75;;Valid;OXBH.2016.87;5551.85;1628.64;55.864;16.477;81.29978477;266.7315773;42.476928;208;38.82285677;127.3715773;492.1259843;0.453652799;1;1
2015;2015-11-21 11:16;OXBH;DANA;;Research vessel;6;BITS;26;Sub-26 (Östersjön-Södra centrala Ö);4 163;56 19,900;18 24,990;56 21,020;18 26,790;30;3;2;42;43;43;;43;316;OTB Otter trawl bottom;TV 112 COD TRAWL;;;;;;"Thyborön 100""";4;75;;Valid;OXBH.2015.9;5619.9;1824.99;56.332;18.417;81.29978477;266.7315773;42.476928;208;38.82285677;127.3715773;492.1259843;0.453652799;1;1
2015;2015-03-01 13:30;OXBH;DANA;;Research vessel;6;BITS;28;Sub-28 (Östersjön-Öster om Gotland);4 364;57 17,000;19 06,000;57 15,600;19 04,800;30;3;2;;81;84;;83;319;OTB Otter trawl bottom;TV3 BOTTOM TRAWL FOR COD 930 MESH;;;;;;"Thyborön 100""";4;75;;No oxygen;OXBH.2015.39;5717;1906;57.283;19.1;81.29978477;266.7315773;42.476928;208;38.82285677;127.3715773;492.1259843;0.453652799;1;1
2016;2016-11-24 13:37;OXBH;DANA;;Research vessel;6;BITS;27;Sub-27 (Östersjön-Väster om Gotland);4 262;56 57,930;17 11,220;56 56,470;17 10,530;30;3;2;194;72;73;;72;319;OTB Otter trawl bottom;TV3 BOTTOM TRAWL FOR COD 930 MESH;;;;;;"Thyborön 100""";4;75;;Additional valid stations not used for index calculations;OXBH.2016.43;5657.93;1711.22;56.966;17.187;81.29978477;266.7315773;42.476928;208;38.82285677;127.3715773;492.1259843;0.453652799;1;1
2016;2016-02-26 12:00;OXBH;DANA;;Research vessel;6;BITS;28;Sub-28 (Östersjön-Öster om Gotland);4 564;58 02,080;19 29,770;58 03,080;19 27,680;30;3;2;;86;97;;91;319;OTB Otter trawl bottom;TV3 BOTTOM TRAWL FOR COD 930 MESH;;;;;;"Thyborön 100""";4;75;;No oxygen;OXBH.2016.57;5802.08;1929.77;58.035;19.496;81.29978477;266.7315773;42.476928;208;38.82285677;127.3715773;492.1259843;0.453652799;1;1
2016;2016-10-12 22:51;OXBH;DANA;;Research vessel;2;Acoustics (BIAS, Hersur) ;25;Sub-25 (Östersjön-Södra centrala V);4 062;55 55,570;17 47,960;55 56,160;17 51,450;40;3;2;73;62;59;;60;321;OTM Otter trawl midwater;Fotö oneboat pelag floatstock.14;;;;;;Tyborön VF 15;4;108;;Valid;OXBH.2016.84;5555.57;1747.96;55.926;17.799;0;0;0;;0;0;;0;;1
2016;2016-10-11 00:34;OXBH;DANA;;Research vessel;2;Acoustics (BIAS, Hersur) ;28;Sub-28 (Östersjön-Öster om Gotland);4 263;56 57,110;18 53,780;56 55,990;18 52,470;30;3;1;213;121;110;;116;321;OTM Otter trawl midwater;FOTÖ ONEB PEL.TR 3.2M 6MM 2010;;;;;;Tyborön VF 15;4;108;;Valid;OXBH.2016.65;5657.11;1853.78;56.952;18.896;0;0;0;;0;0;;0;;1.1
2015;2015-10-04 15:32;OXBH;DANA;;Research vessel;2;Acoustics (BIAS, Hersur) ;27;Sub-27 (Östersjön-Väster om Gotland);4 563;58 19,760;18 38,552;58 19,236;18 33,120;46;4;3;260;142;118;;128;321;OTM Otter trawl midwater;FOTÖ ONEB PEL.TR 3.2M 6MM 2010;;;;;;Tyborön VF 15;4;108;;Valid;OXBH.2015.40;5819.76;1838.552;58.329;18.643;0;0;0;;0;0;;0;;0.8
2016;2016-10-10 07:54;OXBH;DANA;;Research vessel;2;Acoustics (BIAS, Hersur) ;28;Sub-28 (Östersjön-Öster om Gotland);4 364;57 21,055;19 37,812;57 22,973;19 40,121;46;3;2;31;66;79;;72;321;OTM Otter trawl midwater;Fotö oneboat pelag floatstock.14;;;;;;Tyborön VF 15;4;108;;Valid;OXBH.2016.59;5721.055;1937.812;57.351;19.63;0;0;0;;0;0;;0;;1
2015;2015-03-08 08:29;OXBH;DANA;;Research vessel;6;BITS;25;Sub-25 (Östersjön-Södra centrala V);4 059;55 41,970;14 22,280;55 43,500;14 20,630;30;3;1;321;37;34;;35;319;OTB Otter trawl bottom;TV3 BOTTOM TRAWL FOR COD 930 MESH;;;;;;"Thyborön 100""";4;75;;Valid;OXBH.2015.94;5541.97;1422.28;55.7;14.371;81.29978477;266.7315773;42.476928;208;38.82285677;127.3715773;492.1259843;0.453652799;1;1
2016;2016-02-29 07:06;OXBH;DANA;;Research vessel;6;BITS;25;Sub-25 (Östersjön-Södra centrala V);4 162;56 15,630;17 53,320;56 14,390;17 51,830;30;3;2;214;40;49;;45;319;OTB Otter trawl bottom;TV3 BOTTOM TRAWL FOR COD 930 MESH;;;;;;"Thyborön 100""";4;75;;Valid;OXBH.2016.81;5615.63;1753.32;56.261;17.889;81.29978477;266.7315773;42.476928;208;38.82285677;127.3715773;492.1259843;0.453652799;1;1
2016;2016-11-19 07:13;OXBH;DANA;;Research vessel;6;BITS;25;Sub-25 (Östersjön-Södra centrala V);4 060;55 49,470;15 19,460;55 48,440;15 17,660;30;3;1;224;53;54;;55;319;OTB Otter trawl bottom;TV3 BOTTOM TRAWL FOR COD 930 MESH;;;;;;"Thyborön 100""";4;75;;Valid;OXBH.2016.2;5549.47;1519.46;55.825;15.324;81.29978477;266.7315773;42.476928;208;38.82285677;127.3715773;492.1259843;0.453652799;1;1
